[
 {
   "id": 1001,
   "name_th": "เขตพระนคร",
   "province_th": "กรุงเทพมหานคร",
   "amcode": 1,
   "pvcode": 10
 },
 {
   "id": 1002,
   "name_th": "เขตดุสิต",
   "province_th": "กรุงเทพมหานคร",
   "amcode": 2,
   "pvcode": 10
 },
 {
   "id": 1003,
   "name_th": "เขตหนองจอก",
   "province_th": "กรุงเทพมหานคร",
   "amcode": 3,
   "pvcode": 10
 },
 {
   "id": 1004,
   "name_th": "เขตบางรัก",
   "province_th": "กรุงเทพมหานคร",
   "amcode": 4,
   "pvcode": 10
 },
 {
   "id": 1005,
   "name_th": "เขตบางเขน",
   "province_th": "กรุงเทพมหานคร",
   "amcode": 5,
   "pvcode": 10
 },
 {
   "id": 1006,
   "name_th": "เขตบางกะปิ",
   "province_th": "กรุงเทพมหานคร",
   "amcode": 6,
   "pvcode": 10
 },
 {
   "id": 1007,
   "name_th": "เขตปทุมวัน",
   "province_th": "กรุงเทพมหานคร",
   "amcode": 7,
   "pvcode": 10
 },
 {
   "id": 1008,
   "name_th": "เขตป้อมปราบศัตรูพ่าย",
   "province_th": "กรุงเทพมหานคร",
   "amcode": 8,
   "pvcode": 10
 },
 {
   "id": 1009,
   "name_th": "เขตพระโขนง",
   "province_th": "กรุงเทพมหานคร",
   "amcode": 9,
   "pvcode": 10
 },
 {
   "id": 1010,
   "name_th": "เขตมีนบุรี",
   "province_th": "กรุงเทพมหานคร",
   "amcode": 10,
   "pvcode": 10
 },
 {
   "id": 1011,
   "name_th": "เขตลาดกระบัง",
   "province_th": "กรุงเทพมหานคร",
   "amcode": 11,
   "pvcode": 10
 },
 {
   "id": 1012,
   "name_th": "เขตยานนาวา",
   "province_th": "กรุงเทพมหานคร",
   "amcode": 12,
   "pvcode": 10
 },
 {
   "id": 1013,
   "name_th": "เขตสัมพันธวงศ์",
   "province_th": "กรุงเทพมหานคร",
   "amcode": 13,
   "pvcode": 10
 },
 {
   "id": 1014,
   "name_th": "เขตพญาไท",
   "province_th": "กรุงเทพมหานคร",
   "amcode": 14,
   "pvcode": 10
 },
 {
   "id": 1015,
   "name_th": "เขตธนบุรี",
   "province_th": "กรุงเทพมหานคร",
   "amcode": 15,
   "pvcode": 10
 },
 {
   "id": 1016,
   "name_th": "เขตบางกอกใหญ่",
   "province_th": "กรุงเทพมหานคร",
   "amcode": 16,
   "pvcode": 10
 },
 {
   "id": 1017,
   "name_th": "เขตห้วยขวาง",
   "province_th": "กรุงเทพมหานคร",
   "amcode": 17,
   "pvcode": 10
 },
 {
   "id": 1018,
   "name_th": "เขตคลองสาน",
   "province_th": "กรุงเทพมหานคร",
   "amcode": 18,
   "pvcode": 10
 },
 {
   "id": 1019,
   "name_th": "เขตตลิ่งชัน",
   "province_th": "กรุงเทพมหานคร",
   "amcode": 19,
   "pvcode": 10
 },
 {
   "id": 1020,
   "name_th": "เขตบางกอกน้อย",
   "province_th": "กรุงเทพมหานคร",
   "amcode": 20,
   "pvcode": 10
 },
 {
   "id": 1021,
   "name_th": "เขตบางขุนเทียน",
   "province_th": "กรุงเทพมหานคร",
   "amcode": 21,
   "pvcode": 10
 },
 {
   "id": 1022,
   "name_th": "เขตภาษีเจริญ",
   "province_th": "กรุงเทพมหานคร",
   "amcode": 22,
   "pvcode": 10
 },
 {
   "id": 1023,
   "name_th": "เขตหนองแขม",
   "province_th": "กรุงเทพมหานคร",
   "amcode": 23,
   "pvcode": 10
 },
 {
   "id": 1024,
   "name_th": "เขตราษฎร์บูรณะ",
   "province_th": "กรุงเทพมหานคร",
   "amcode": 24,
   "pvcode": 10
 },
 {
   "id": 1025,
   "name_th": "เขตบางพลัด",
   "province_th": "กรุงเทพมหานคร",
   "amcode": 25,
   "pvcode": 10
 },
 {
   "id": 1026,
   "name_th": "เขตดินแดง",
   "province_th": "กรุงเทพมหานคร",
   "amcode": 26,
   "pvcode": 10
 },
 {
   "id": 1027,
   "name_th": "เขตบึงกุ่ม",
   "province_th": "กรุงเทพมหานคร",
   "amcode": 27,
   "pvcode": 10
 },
 {
   "id": 1028,
   "name_th": "เขตสาทร",
   "province_th": "กรุงเทพมหานคร",
   "amcode": 28,
   "pvcode": 10
 },
 {
   "id": 1029,
   "name_th": "เขตบางซื่อ",
   "province_th": "กรุงเทพมหานคร",
   "amcode": 29,
   "pvcode": 10
 },
 {
   "id": 1030,
   "name_th": "เขตจตุจักร",
   "province_th": "กรุงเทพมหานคร",
   "amcode": 30,
   "pvcode": 10
 },
 {
   "id": 1031,
   "name_th": "เขตบางคอแหลม",
   "province_th": "กรุงเทพมหานคร",
   "amcode": 31,
   "pvcode": 10
 },
 {
   "id": 1032,
   "name_th": "เขตประเวศ",
   "province_th": "กรุงเทพมหานคร",
   "amcode": 32,
   "pvcode": 10
 },
 {
   "id": 1033,
   "name_th": "เขตคลองเตย",
   "province_th": "กรุงเทพมหานคร",
   "amcode": 33,
   "pvcode": 10
 },
 {
   "id": 1034,
   "name_th": "เขตสวนหลวง",
   "province_th": "กรุงเทพมหานคร",
   "amcode": 34,
   "pvcode": 10
 },
 {
   "id": 1035,
   "name_th": "เขตจอมทอง",
   "province_th": "กรุงเทพมหานคร",
   "amcode": 35,
   "pvcode": 10
 },
 {
   "id": 1036,
   "name_th": "เขตดอนเมือง",
   "province_th": "กรุงเทพมหานคร",
   "amcode": 36,
   "pvcode": 10
 },
 {
   "id": 1037,
   "name_th": "เขตราชเทวี",
   "province_th": "กรุงเทพมหานคร",
   "amcode": 37,
   "pvcode": 10
 },
 {
   "id": 1038,
   "name_th": "เขตลาดพร้าว",
   "province_th": "กรุงเทพมหานคร",
   "amcode": 38,
   "pvcode": 10
 },
 {
   "id": 1039,
   "name_th": "เขตวัฒนา",
   "province_th": "กรุงเทพมหานคร",
   "amcode": 39,
   "pvcode": 10
 },
 {
   "id": 1040,
   "name_th": "เขตบางแค",
   "province_th": "กรุงเทพมหานคร",
   "amcode": 40,
   "pvcode": 10
 },
 {
   "id": 1041,
   "name_th": "เขตหลักสี่",
   "province_th": "กรุงเทพมหานคร",
   "amcode": 41,
   "pvcode": 10
 },
 {
   "id": 1042,
   "name_th": "เขตสายไหม",
   "province_th": "กรุงเทพมหานคร",
   "amcode": 42,
   "pvcode": 10
 },
 {
   "id": 1043,
   "name_th": "เขตคันนายาว",
   "province_th": "กรุงเทพมหานคร",
   "amcode": 43,
   "pvcode": 10
 },
 {
   "id": 1044,
   "name_th": "เขตสะพานสูง",
   "province_th": "กรุงเทพมหานคร",
   "amcode": 44,
   "pvcode": 10
 },
 {
   "id": 1045,
   "name_th": "เขตวังทองหลาง",
   "province_th": "กรุงเทพมหานคร",
   "amcode": 45,
   "pvcode": 10
 },
 {
   "id": 1046,
   "name_th": "เขตคลองสามวา",
   "province_th": "กรุงเทพมหานคร",
   "amcode": 46,
   "pvcode": 10
 },
 {
   "id": 1047,
   "name_th": "เขตบางนา",
   "province_th": "กรุงเทพมหานคร",
   "amcode": 47,
   "pvcode": 10
 },
 {
   "id": 1048,
   "name_th": "เขตทวีวัฒนา",
   "province_th": "กรุงเทพมหานคร",
   "amcode": 48,
   "pvcode": 10
 },
 {
   "id": 1049,
   "name_th": "เขตทุ่งครุ",
   "province_th": "กรุงเทพมหานคร",
   "amcode": 49,
   "pvcode": 10
 },
 {
   "id": 1050,
   "name_th": "เขตบางบอน",
   "province_th": "กรุงเทพมหานคร",
   "amcode": 50,
   "pvcode": 10
 },
 {
   "id": 1101,
   "name_th": "อำเภอเมืองสมุทรปราการ",
   "province_th": "สมุทรปราการ",
   "amcode": 1,
   "pvcode": 11
 },
 {
   "id": 1102,
   "name_th": "อำเภอบางบ่อ",
   "province_th": "สมุทรปราการ",
   "amcode": 2,
   "pvcode": 11
 },
 {
   "id": 1103,
   "name_th": "อำเภอบางพลี",
   "province_th": "สมุทรปราการ",
   "amcode": 3,
   "pvcode": 11
 },
 {
   "id": 1104,
   "name_th": "อำเภอพระประแดง",
   "province_th": "สมุทรปราการ",
   "amcode": 4,
   "pvcode": 11
 },
 {
   "id": 1105,
   "name_th": "อำเภอพระสมุทรเจดีย์",
   "province_th": "สมุทรปราการ",
   "amcode": 5,
   "pvcode": 11
 },
 {
   "id": 1106,
   "name_th": "อำเภอบางเสาธง",
   "province_th": "สมุทรปราการ",
   "amcode": 6,
   "pvcode": 11
 },
 {
   "id": 1201,
   "name_th": "อำเภอเมืองนนทบุรี",
   "province_th": "นนทบุรี",
   "amcode": 1,
   "pvcode": 12
 },
 {
   "id": 1202,
   "name_th": "อำเภอบางกรวย",
   "province_th": "นนทบุรี",
   "amcode": 2,
   "pvcode": 12
 },
 {
   "id": 1203,
   "name_th": "อำเภอบางใหญ่",
   "province_th": "นนทบุรี",
   "amcode": 3,
   "pvcode": 12
 },
 {
   "id": 1204,
   "name_th": "อำเภอบางบัวทอง",
   "province_th": "นนทบุรี",
   "amcode": 4,
   "pvcode": 12
 },
 {
   "id": 1205,
   "name_th": "อำเภอไทรน้อย",
   "province_th": "นนทบุรี",
   "amcode": 5,
   "pvcode": 12
 },
 {
   "id": 1206,
   "name_th": "อำเภอปากเกร็ด",
   "province_th": "นนทบุรี",
   "amcode": 6,
   "pvcode": 12
 },
 {
   "id": 1301,
   "name_th": "อำเภอเมืองปทุมธานี",
   "province_th": "ปทุมธานี",
   "amcode": 1,
   "pvcode": 13
 },
 {
   "id": 1302,
   "name_th": "อำเภอคลองหลวง",
   "province_th": "ปทุมธานี",
   "amcode": 2,
   "pvcode": 13
 },
 {
   "id": 1303,
   "name_th": "อำเภอธัญบุรี",
   "province_th": "ปทุมธานี",
   "amcode": 3,
   "pvcode": 13
 },
 {
   "id": 1304,
   "name_th": "อำเภอหนองเสือ",
   "province_th": "ปทุมธานี",
   "amcode": 4,
   "pvcode": 13
 },
 {
   "id": 1305,
   "name_th": "อำเภอลาดหลุมแก้ว",
   "province_th": "ปทุมธานี",
   "amcode": 5,
   "pvcode": 13
 },
 {
   "id": 1306,
   "name_th": "อำเภอลำลูกกา",
   "province_th": "ปทุมธานี",
   "amcode": 6,
   "pvcode": 13
 },
 {
   "id": 1307,
   "name_th": "อำเภอสามโคก",
   "province_th": "ปทุมธานี",
   "amcode": 7,
   "pvcode": 13
 },
 {
   "id": 1401,
   "name_th": "อำเภอพระนครศรีอยุธยา",
   "province_th": "พระนครศรีอยุธยา",
   "amcode": 1,
   "pvcode": 14
 },
 {
   "id": 1402,
   "name_th": "อำเภอท่าเรือ",
   "province_th": "พระนครศรีอยุธยา",
   "amcode": 2,
   "pvcode": 14
 },
 {
   "id": 1403,
   "name_th": "อำเภอนครหลวง",
   "province_th": "พระนครศรีอยุธยา",
   "amcode": 3,
   "pvcode": 14
 },
 {
   "id": 1404,
   "name_th": "อำเภอบางไทร",
   "province_th": "พระนครศรีอยุธยา",
   "amcode": 4,
   "pvcode": 14
 },
 {
   "id": 1405,
   "name_th": "อำเภอบางบาล",
   "province_th": "พระนครศรีอยุธยา",
   "amcode": 5,
   "pvcode": 14
 },
 {
   "id": 1406,
   "name_th": "อำเภอบางปะอิน",
   "province_th": "พระนครศรีอยุธยา",
   "amcode": 6,
   "pvcode": 14
 },
 {
   "id": 1407,
   "name_th": "อำเภอบางปะหัน",
   "province_th": "พระนครศรีอยุธยา",
   "amcode": 7,
   "pvcode": 14
 },
 {
   "id": 1408,
   "name_th": "อำเภอผักไห่",
   "province_th": "พระนครศรีอยุธยา",
   "amcode": 8,
   "pvcode": 14
 },
 {
   "id": 1409,
   "name_th": "อำเภอภาชี",
   "province_th": "พระนครศรีอยุธยา",
   "amcode": 9,
   "pvcode": 14
 },
 {
   "id": 1410,
   "name_th": "อำเภอลาดบัวหลวง",
   "province_th": "พระนครศรีอยุธยา",
   "amcode": 10,
   "pvcode": 14
 },
 {
   "id": 1411,
   "name_th": "อำเภอวังน้อย",
   "province_th": "พระนครศรีอยุธยา",
   "amcode": 11,
   "pvcode": 14
 },
 {
   "id": 1412,
   "name_th": "อำเภอเสนา",
   "province_th": "พระนครศรีอยุธยา",
   "amcode": 12,
   "pvcode": 14
 },
 {
   "id": 1413,
   "name_th": "อำเภอบางซ้าย",
   "province_th": "พระนครศรีอยุธยา",
   "amcode": 13,
   "pvcode": 14
 },
 {
   "id": 1414,
   "name_th": "อำเภออุทัย",
   "province_th": "พระนครศรีอยุธยา",
   "amcode": 14,
   "pvcode": 14
 },
 {
   "id": 1415,
   "name_th": "อำเภอมหาราช",
   "province_th": "พระนครศรีอยุธยา",
   "amcode": 15,
   "pvcode": 14
 },
 {
   "id": 1416,
   "name_th": "อำเภอบ้านแพรก",
   "province_th": "พระนครศรีอยุธยา",
   "amcode": 16,
   "pvcode": 14
 },
 {
   "id": 1501,
   "name_th": "อำเภอเมืองอ่างทอง",
   "province_th": "อ่างทอง",
   "amcode": 1,
   "pvcode": 15
 },
 {
   "id": 1502,
   "name_th": "อำเภอไชโย",
   "province_th": "อ่างทอง",
   "amcode": 2,
   "pvcode": 15
 },
 {
   "id": 1503,
   "name_th": "อำเภอป่าโมก",
   "province_th": "อ่างทอง",
   "amcode": 3,
   "pvcode": 15
 },
 {
   "id": 1504,
   "name_th": "อำเภอโพธิ์ทอง",
   "province_th": "อ่างทอง",
   "amcode": 4,
   "pvcode": 15
 },
 {
   "id": 1505,
   "name_th": "อำเภอแสวงหา",
   "province_th": "อ่างทอง",
   "amcode": 5,
   "pvcode": 15
 },
 {
   "id": 1506,
   "name_th": "อำเภอวิเศษชัยชาญ",
   "province_th": "อ่างทอง",
   "amcode": 6,
   "pvcode": 15
 },
 {
   "id": 1507,
   "name_th": "อำเภอสามโก้",
   "province_th": "อ่างทอง",
   "amcode": 7,
   "pvcode": 15
 },
 {
   "id": 1601,
   "name_th": "อำเภอเมืองลพบุรี",
   "province_th": "ลพบุรี",
   "amcode": 1,
   "pvcode": 16
 },
 {
   "id": 1602,
   "name_th": "อำเภอพัฒนานิคม",
   "province_th": "ลพบุรี",
   "amcode": 2,
   "pvcode": 16
 },
 {
   "id": 1603,
   "name_th": "อำเภอโคกสำโรง",
   "province_th": "ลพบุรี",
   "amcode": 3,
   "pvcode": 16
 },
 {
   "id": 1604,
   "name_th": "อำเภอชัยบาดาล",
   "province_th": "ลพบุรี",
   "amcode": 4,
   "pvcode": 16
 },
 {
   "id": 1605,
   "name_th": "อำเภอท่าวุ้ง",
   "province_th": "ลพบุรี",
   "amcode": 5,
   "pvcode": 16
 },
 {
   "id": 1606,
   "name_th": "อำเภอบ้านหมี่",
   "province_th": "ลพบุรี",
   "amcode": 6,
   "pvcode": 16
 },
 {
   "id": 1607,
   "name_th": "อำเภอท่าหลวง",
   "province_th": "ลพบุรี",
   "amcode": 7,
   "pvcode": 16
 },
 {
   "id": 1608,
   "name_th": "อำเภอสระโบสถ์",
   "province_th": "ลพบุรี",
   "amcode": 8,
   "pvcode": 16
 },
 {
   "id": 1609,
   "name_th": "อำเภอโคกเจริญ",
   "province_th": "ลพบุรี",
   "amcode": 9,
   "pvcode": 16
 },
 {
   "id": 1610,
   "name_th": "อำเภอลำสนธิ",
   "province_th": "ลพบุรี",
   "amcode": 10,
   "pvcode": 16
 },
 {
   "id": 1611,
   "name_th": "อำเภอหนองม่วง",
   "province_th": "ลพบุรี",
   "amcode": 11,
   "pvcode": 16
 },
 {
   "id": 1701,
   "name_th": "อำเภอเมืองสิงห์บุรี",
   "province_th": "สิงห์บุรี",
   "amcode": 1,
   "pvcode": 17
 },
 {
   "id": 1702,
   "name_th": "อำเภอบางระจัน",
   "province_th": "สิงห์บุรี",
   "amcode": 2,
   "pvcode": 17
 },
 {
   "id": 1703,
   "name_th": "อำเภอค่ายบางระจัน",
   "province_th": "สิงห์บุรี",
   "amcode": 3,
   "pvcode": 17
 },
 {
   "id": 1704,
   "name_th": "อำเภอพรหมบุรี",
   "province_th": "สิงห์บุรี",
   "amcode": 4,
   "pvcode": 17
 },
 {
   "id": 1705,
   "name_th": "อำเภอท่าช้าง",
   "province_th": "สิงห์บุรี",
   "amcode": 5,
   "pvcode": 17
 },
 {
   "id": 1706,
   "name_th": "อำเภออินทร์บุรี",
   "province_th": "สิงห์บุรี",
   "amcode": 6,
   "pvcode": 17
 },
 {
   "id": 1801,
   "name_th": "อำเภอเมืองชัยนาท",
   "province_th": "ชัยนาท",
   "amcode": 1,
   "pvcode": 18
 },
 {
   "id": 1802,
   "name_th": "อำเภอมโนรมย์",
   "province_th": "ชัยนาท",
   "amcode": 2,
   "pvcode": 18
 },
 {
   "id": 1803,
   "name_th": "อำเภอวัดสิงห์",
   "province_th": "ชัยนาท",
   "amcode": 3,
   "pvcode": 18
 },
 {
   "id": 1804,
   "name_th": "อำเภอสรรพยา",
   "province_th": "ชัยนาท",
   "amcode": 4,
   "pvcode": 18
 },
 {
   "id": 1805,
   "name_th": "อำเภอสรรคบุรี",
   "province_th": "ชัยนาท",
   "amcode": 5,
   "pvcode": 18
 },
 {
   "id": 1806,
   "name_th": "อำเภอหันคา",
   "province_th": "ชัยนาท",
   "amcode": 6,
   "pvcode": 18
 },
 {
   "id": 1807,
   "name_th": "อำเภอหนองมะโมง",
   "province_th": "ชัยนาท",
   "amcode": 7,
   "pvcode": 18
 },
 {
   "id": 1808,
   "name_th": "อำเภอเนินขาม",
   "province_th": "ชัยนาท",
   "amcode": 8,
   "pvcode": 18
 },
 {
   "id": 1901,
   "name_th": "อำเภอเมืองสระบุรี",
   "province_th": "สระบุรี",
   "amcode": 1,
   "pvcode": 19
 },
 {
   "id": 1902,
   "name_th": "อำเภอแก่งคอย",
   "province_th": "สระบุรี",
   "amcode": 2,
   "pvcode": 19
 },
 {
   "id": 1903,
   "name_th": "อำเภอหนองแค",
   "province_th": "สระบุรี",
   "amcode": 3,
   "pvcode": 19
 },
 {
   "id": 1904,
   "name_th": "อำเภอวิหารแดง",
   "province_th": "สระบุรี",
   "amcode": 4,
   "pvcode": 19
 },
 {
   "id": 1905,
   "name_th": "อำเภอหนองแซง",
   "province_th": "สระบุรี",
   "amcode": 5,
   "pvcode": 19
 },
 {
   "id": 1906,
   "name_th": "อำเภอบ้านหมอ",
   "province_th": "สระบุรี",
   "amcode": 6,
   "pvcode": 19
 },
 {
   "id": 1907,
   "name_th": "อำเภอดอนพุด",
   "province_th": "สระบุรี",
   "amcode": 7,
   "pvcode": 19
 },
 {
   "id": 1908,
   "name_th": "อำเภอหนองโดน",
   "province_th": "สระบุรี",
   "amcode": 8,
   "pvcode": 19
 },
 {
   "id": 1909,
   "name_th": "อำเภอพระพุทธบาท",
   "province_th": "สระบุรี",
   "amcode": 9,
   "pvcode": 19
 },
 {
   "id": 1910,
   "name_th": "อำเภอเสาไห้",
   "province_th": "สระบุรี",
   "amcode": 10,
   "pvcode": 19
 },
 {
   "id": 1911,
   "name_th": "อำเภอมวกเหล็ก",
   "province_th": "สระบุรี",
   "amcode": 11,
   "pvcode": 19
 },
 {
   "id": 1912,
   "name_th": "อำเภอวังม่วง",
   "province_th": "สระบุรี",
   "amcode": 12,
   "pvcode": 19
 },
 {
   "id": 1913,
   "name_th": "อำเภอเฉลิมพระเกียรติ",
   "province_th": "สระบุรี",
   "amcode": 13,
   "pvcode": 19
 },
 {
   "id": 2001,
   "name_th": "อำเภอเมืองชลบุรี",
   "province_th": "ชลบุรี",
   "amcode": 1,
   "pvcode": 20
 },
 {
   "id": 2002,
   "name_th": "อำเภอบ้านบึง",
   "province_th": "ชลบุรี",
   "amcode": 2,
   "pvcode": 20
 },
 {
   "id": 2003,
   "name_th": "อำเภอหนองใหญ่",
   "province_th": "ชลบุรี",
   "amcode": 3,
   "pvcode": 20
 },
 {
   "id": 2004,
   "name_th": "อำเภอบางละมุง",
   "province_th": "ชลบุรี",
   "amcode": 4,
   "pvcode": 20
 },
 {
   "id": 2005,
   "name_th": "อำเภอพานทอง",
   "province_th": "ชลบุรี",
   "amcode": 5,
   "pvcode": 20
 },
 {
   "id": 2006,
   "name_th": "อำเภอพนัสนิคม",
   "province_th": "ชลบุรี",
   "amcode": 6,
   "pvcode": 20
 },
 {
   "id": 2007,
   "name_th": "อำเภอศรีราชา",
   "province_th": "ชลบุรี",
   "amcode": 7,
   "pvcode": 20
 },
 {
   "id": 2008,
   "name_th": "อำเภอเกาะสีชัง",
   "province_th": "ชลบุรี",
   "amcode": 8,
   "pvcode": 20
 },
 {
   "id": 2009,
   "name_th": "อำเภอสัตหีบ",
   "province_th": "ชลบุรี",
   "amcode": 9,
   "pvcode": 20
 },
 {
   "id": 2010,
   "name_th": "อำเภอบ่อทอง",
   "province_th": "ชลบุรี",
   "amcode": 10,
   "pvcode": 20
 },
 {
   "id": 2011,
   "name_th": "อำเภอเกาะจันทร์",
   "province_th": "ชลบุรี",
   "amcode": 11,
   "pvcode": 20
 },
 {
   "id": 2101,
   "name_th": "อำเภอเมืองระยอง",
   "province_th": "ระยอง",
   "amcode": 1,
   "pvcode": 21
 },
 {
   "id": 2102,
   "name_th": "อำเภอบ้านฉาง",
   "province_th": "ระยอง",
   "amcode": 2,
   "pvcode": 21
 },
 {
   "id": 2103,
   "name_th": "อำเภอแกลง",
   "province_th": "ระยอง",
   "amcode": 3,
   "pvcode": 21
 },
 {
   "id": 2104,
   "name_th": "อำเภอวังจันทร์",
   "province_th": "ระยอง",
   "amcode": 4,
   "pvcode": 21
 },
 {
   "id": 2105,
   "name_th": "อำเภอบ้านค่าย",
   "province_th": "ระยอง",
   "amcode": 5,
   "pvcode": 21
 },
 {
   "id": 2106,
   "name_th": "อำเภอปลวกแดง",
   "province_th": "ระยอง",
   "amcode": 6,
   "pvcode": 21
 },
 {
   "id": 2107,
   "name_th": "อำเภอเขาชะเมา",
   "province_th": "ระยอง",
   "amcode": 7,
   "pvcode": 21
 },
 {
   "id": 2108,
   "name_th": "อำเภอนิคมพัฒนา",
   "province_th": "ระยอง",
   "amcode": 8,
   "pvcode": 21
 },
 {
   "id": 2201,
   "name_th": "อำเภอเมืองจันทบุรี",
   "province_th": "จันทบุรี",
   "amcode": 1,
   "pvcode": 22
 },
 {
   "id": 2202,
   "name_th": "อำเภอขลุง",
   "province_th": "จันทบุรี",
   "amcode": 2,
   "pvcode": 22
 },
 {
   "id": 2203,
   "name_th": "อำเภอท่าใหม่",
   "province_th": "จันทบุรี",
   "amcode": 3,
   "pvcode": 22
 },
 {
   "id": 2204,
   "name_th": "อำเภอโป่งน้ำร้อน",
   "province_th": "จันทบุรี",
   "amcode": 4,
   "pvcode": 22
 },
 {
   "id": 2205,
   "name_th": "อำเภอมะขาม",
   "province_th": "จันทบุรี",
   "amcode": 5,
   "pvcode": 22
 },
 {
   "id": 2206,
   "name_th": "อำเภอแหลมสิงห์",
   "province_th": "จันทบุรี",
   "amcode": 6,
   "pvcode": 22
 },
 {
   "id": 2207,
   "name_th": "อำเภอสอยดาว",
   "province_th": "จันทบุรี",
   "amcode": 7,
   "pvcode": 22
 },
 {
   "id": 2208,
   "name_th": "อำเภอแก่งหางแมว",
   "province_th": "จันทบุรี",
   "amcode": 8,
   "pvcode": 22
 },
 {
   "id": 2209,
   "name_th": "อำเภอนายายอาม",
   "province_th": "จันทบุรี",
   "amcode": 9,
   "pvcode": 22
 },
 {
   "id": 2210,
   "name_th": "อำเภอเขาคิชฌกูฏ",
   "province_th": "จันทบุรี",
   "amcode": 10,
   "pvcode": 22
 },
 {
   "id": 2301,
   "name_th": "อำเภอเมืองตราด",
   "province_th": "ตราด",
   "amcode": 1,
   "pvcode": 23
 },
 {
   "id": 2302,
   "name_th": "อำเภอคลองใหญ่",
   "province_th": "ตราด",
   "amcode": 2,
   "pvcode": 23
 },
 {
   "id": 2303,
   "name_th": "อำเภอเขาสมิง",
   "province_th": "ตราด",
   "amcode": 3,
   "pvcode": 23
 },
 {
   "id": 2304,
   "name_th": "อำเภอบ่อไร่",
   "province_th": "ตราด",
   "amcode": 4,
   "pvcode": 23
 },
 {
   "id": 2305,
   "name_th": "อำเภอแหลมงอบ",
   "province_th": "ตราด",
   "amcode": 5,
   "pvcode": 23
 },
 {
   "id": 2306,
   "name_th": "อำเภอเกาะกูด",
   "province_th": "ตราด",
   "amcode": 6,
   "pvcode": 23
 },
 {
   "id": 2307,
   "name_th": "อำเภอเกาะช้าง",
   "province_th": "ตราด",
   "amcode": 7,
   "pvcode": 23
 },
 {
   "id": 2401,
   "name_th": "อำเภอเมืองฉะเชิงเทรา",
   "province_th": "ฉะเชิงเทรา",
   "amcode": 1,
   "pvcode": 24
 },
 {
   "id": 2402,
   "name_th": "อำเภอบางคล้า",
   "province_th": "ฉะเชิงเทรา",
   "amcode": 2,
   "pvcode": 24
 },
 {
   "id": 2403,
   "name_th": "อำเภอบางน้ำเปรี้ยว",
   "province_th": "ฉะเชิงเทรา",
   "amcode": 3,
   "pvcode": 24
 },
 {
   "id": 2404,
   "name_th": "อำเภอบางปะกง",
   "province_th": "ฉะเชิงเทรา",
   "amcode": 4,
   "pvcode": 24
 },
 {
   "id": 2405,
   "name_th": "อำเภอบ้านโพธิ์",
   "province_th": "ฉะเชิงเทรา",
   "amcode": 5,
   "pvcode": 24
 },
 {
   "id": 2406,
   "name_th": "อำเภอพนมสารคาม",
   "province_th": "ฉะเชิงเทรา",
   "amcode": 6,
   "pvcode": 24
 },
 {
   "id": 2407,
   "name_th": "อำเภอราชสาส์น",
   "province_th": "ฉะเชิงเทรา",
   "amcode": 7,
   "pvcode": 24
 },
 {
   "id": 2408,
   "name_th": "อำเภอสนามชัยเขต",
   "province_th": "ฉะเชิงเทรา",
   "amcode": 8,
   "pvcode": 24
 },
 {
   "id": 2409,
   "name_th": "อำเภอแปลงยาว",
   "province_th": "ฉะเชิงเทรา",
   "amcode": 9,
   "pvcode": 24
 },
 {
   "id": 2410,
   "name_th": "อำเภอท่าตะเกียบ",
   "province_th": "ฉะเชิงเทรา",
   "amcode": 10,
   "pvcode": 24
 },
 {
   "id": 2411,
   "name_th": "อำเภอคลองเขื่อน",
   "province_th": "ฉะเชิงเทรา",
   "amcode": 11,
   "pvcode": 24
 },
 {
   "id": 2501,
   "name_th": "อำเภอเมืองปราจีนบุรี",
   "province_th": "ปราจีนบุรี",
   "amcode": 1,
   "pvcode": 25
 },
 {
   "id": 2502,
   "name_th": "อำเภอกบินทร์บุรี",
   "province_th": "ปราจีนบุรี",
   "amcode": 2,
   "pvcode": 25
 },
 {
   "id": 2503,
   "name_th": "อำเภอนาดี",
   "province_th": "ปราจีนบุรี",
   "amcode": 3,
   "pvcode": 25
 },
 {
   "id": 2506,
   "name_th": "อำเภอบ้านสร้าง",
   "province_th": "ปราจีนบุรี",
   "amcode": 6,
   "pvcode": 25
 },
 {
   "id": 2507,
   "name_th": "อำเภอประจันตคาม",
   "province_th": "ปราจีนบุรี",
   "amcode": 7,
   "pvcode": 25
 },
 {
   "id": 2508,
   "name_th": "อำเภอศรีมหาโพธิ",
   "province_th": "ปราจีนบุรี",
   "amcode": 8,
   "pvcode": 25
 },
 {
   "id": 2509,
   "name_th": "อำเภอศรีมโหสถ",
   "province_th": "ปราจีนบุรี",
   "amcode": 9,
   "pvcode": 25
 },
 {
   "id": 2601,
   "name_th": "อำเภอเมืองนครนายก",
   "province_th": "นครนายก",
   "amcode": 1,
   "pvcode": 26
 },
 {
   "id": 2602,
   "name_th": "อำเภอปากพลี",
   "province_th": "นครนายก",
   "amcode": 2,
   "pvcode": 26
 },
 {
   "id": 2603,
   "name_th": "อำเภอบ้านนา",
   "province_th": "นครนายก",
   "amcode": 3,
   "pvcode": 26
 },
 {
   "id": 2604,
   "name_th": "อำเภอองครักษ์",
   "province_th": "นครนายก",
   "amcode": 4,
   "pvcode": 26
 },
 {
   "id": 2701,
   "name_th": "อำเภอเมืองสระแก้ว",
   "province_th": "สระแก้ว",
   "amcode": 1,
   "pvcode": 27
 },
 {
   "id": 2702,
   "name_th": "อำเภอคลองหาด",
   "province_th": "สระแก้ว",
   "amcode": 2,
   "pvcode": 27
 },
 {
   "id": 2703,
   "name_th": "อำเภอตาพระยา",
   "province_th": "สระแก้ว",
   "amcode": 3,
   "pvcode": 27
 },
 {
   "id": 2704,
   "name_th": "อำเภอวังน้ำเย็น",
   "province_th": "สระแก้ว",
   "amcode": 4,
   "pvcode": 27
 },
 {
   "id": 2705,
   "name_th": "อำเภอวัฒนานคร",
   "province_th": "สระแก้ว",
   "amcode": 5,
   "pvcode": 27
 },
 {
   "id": 2706,
   "name_th": "อำเภออรัญประเทศ",
   "province_th": "สระแก้ว",
   "amcode": 6,
   "pvcode": 27
 },
 {
   "id": 2707,
   "name_th": "อำเภอเขาฉกรรจ์",
   "province_th": "สระแก้ว",
   "amcode": 7,
   "pvcode": 27
 },
 {
   "id": 2708,
   "name_th": "อำเภอโคกสูง",
   "province_th": "สระแก้ว",
   "amcode": 8,
   "pvcode": 27
 },
 {
   "id": 2709,
   "name_th": "อำเภอวังสมบูรณ์",
   "province_th": "สระแก้ว",
   "amcode": 9,
   "pvcode": 27
 },
 {
   "id": 3001,
   "name_th": "อำเภอเมืองนครราชสีมา",
   "province_th": "นครราชสีมา",
   "amcode": 1,
   "pvcode": 30
 },
 {
   "id": 3002,
   "name_th": "อำเภอครบุรี",
   "province_th": "นครราชสีมา",
   "amcode": 2,
   "pvcode": 30
 },
 {
   "id": 3003,
   "name_th": "อำเภอเสิงสาง",
   "province_th": "นครราชสีมา",
   "amcode": 3,
   "pvcode": 30
 },
 {
   "id": 3004,
   "name_th": "อำเภอคง",
   "province_th": "นครราชสีมา",
   "amcode": 4,
   "pvcode": 30
 },
 {
   "id": 3005,
   "name_th": "อำเภอบ้านเหลื่อม",
   "province_th": "นครราชสีมา",
   "amcode": 5,
   "pvcode": 30
 },
 {
   "id": 3006,
   "name_th": "อำเภอจักราช",
   "province_th": "นครราชสีมา",
   "amcode": 6,
   "pvcode": 30
 },
 {
   "id": 3007,
   "name_th": "อำเภอโชคชัย",
   "province_th": "นครราชสีมา",
   "amcode": 7,
   "pvcode": 30
 },
 {
   "id": 3008,
   "name_th": "อำเภอด่านขุนทด",
   "province_th": "นครราชสีมา",
   "amcode": 8,
   "pvcode": 30
 },
 {
   "id": 3009,
   "name_th": "อำเภอโนนไทย",
   "province_th": "นครราชสีมา",
   "amcode": 9,
   "pvcode": 30
 },
 {
   "id": 3010,
   "name_th": "อำเภอโนนสูง",
   "province_th": "นครราชสีมา",
   "amcode": 10,
   "pvcode": 30
 },
 {
   "id": 3011,
   "name_th": "อำเภอขามสะแกแสง",
   "province_th": "นครราชสีมา",
   "amcode": 11,
   "pvcode": 30
 },
 {
   "id": 3012,
   "name_th": "อำเภอบัวใหญ่",
   "province_th": "นครราชสีมา",
   "amcode": 12,
   "pvcode": 30
 },
 {
   "id": 3013,
   "name_th": "อำเภอประทาย",
   "province_th": "นครราชสีมา",
   "amcode": 13,
   "pvcode": 30
 },
 {
   "id": 3014,
   "name_th": "อำเภอปักธงชัย",
   "province_th": "นครราชสีมา",
   "amcode": 14,
   "pvcode": 30
 },
 {
   "id": 3015,
   "name_th": "อำเภอพิมาย",
   "province_th": "นครราชสีมา",
   "amcode": 15,
   "pvcode": 30
 },
 {
   "id": 3016,
   "name_th": "อำเภอห้วยแถลง",
   "province_th": "นครราชสีมา",
   "amcode": 16,
   "pvcode": 30
 },
 {
   "id": 3017,
   "name_th": "อำเภอชุมพวง",
   "province_th": "นครราชสีมา",
   "amcode": 17,
   "pvcode": 30
 },
 {
   "id": 3018,
   "name_th": "อำเภอสูงเนิน",
   "province_th": "นครราชสีมา",
   "amcode": 18,
   "pvcode": 30
 },
 {
   "id": 3019,
   "name_th": "อำเภอขามทะเลสอ",
   "province_th": "นครราชสีมา",
   "amcode": 19,
   "pvcode": 30
 },
 {
   "id": 3020,
   "name_th": "อำเภอสีคิ้ว",
   "province_th": "นครราชสีมา",
   "amcode": 20,
   "pvcode": 30
 },
 {
   "id": 3021,
   "name_th": "อำเภอปากช่อง",
   "province_th": "นครราชสีมา",
   "amcode": 21,
   "pvcode": 30
 },
 {
   "id": 3022,
   "name_th": "อำเภอหนองบุญมาก",
   "province_th": "นครราชสีมา",
   "amcode": 22,
   "pvcode": 30
 },
 {
   "id": 3023,
   "name_th": "อำเภอแก้งสนามนาง",
   "province_th": "นครราชสีมา",
   "amcode": 23,
   "pvcode": 30
 },
 {
   "id": 3024,
   "name_th": "อำเภอโนนแดง",
   "province_th": "นครราชสีมา",
   "amcode": 24,
   "pvcode": 30
 },
 {
   "id": 3025,
   "name_th": "อำเภอวังน้ำเขียว",
   "province_th": "นครราชสีมา",
   "amcode": 25,
   "pvcode": 30
 },
 {
   "id": 3026,
   "name_th": "อำเภอเทพารักษ์",
   "province_th": "นครราชสีมา",
   "amcode": 26,
   "pvcode": 30
 },
 {
   "id": 3027,
   "name_th": "อำเภอเมืองยาง",
   "province_th": "นครราชสีมา",
   "amcode": 27,
   "pvcode": 30
 },
 {
   "id": 3028,
   "name_th": "อำเภอพระทองคำ",
   "province_th": "นครราชสีมา",
   "amcode": 28,
   "pvcode": 30
 },
 {
   "id": 3029,
   "name_th": "อำเภอลำทะเมนชัย",
   "province_th": "นครราชสีมา",
   "amcode": 29,
   "pvcode": 30
 },
 {
   "id": 3030,
   "name_th": "อำเภอบัวลาย",
   "province_th": "นครราชสีมา",
   "amcode": 30,
   "pvcode": 30
 },
 {
   "id": 3031,
   "name_th": "อำเภอสีดา",
   "province_th": "นครราชสีมา",
   "amcode": 31,
   "pvcode": 30
 },
 {
   "id": 3032,
   "name_th": "อำเภอเฉลิมพระเกียรติ",
   "province_th": "นครราชสีมา",
   "amcode": 32,
   "pvcode": 30
 },
 {
   "id": 3101,
   "name_th": "อำเภอเมืองบุรีรัมย์",
   "province_th": "บุรีรัมย์",
   "amcode": 1,
   "pvcode": 31
 },
 {
   "id": 3102,
   "name_th": "อำเภอคูเมือง",
   "province_th": "บุรีรัมย์",
   "amcode": 2,
   "pvcode": 31
 },
 {
   "id": 3103,
   "name_th": "อำเภอกระสัง",
   "province_th": "บุรีรัมย์",
   "amcode": 3,
   "pvcode": 31
 },
 {
   "id": 3104,
   "name_th": "อำเภอนางรอง",
   "province_th": "บุรีรัมย์",
   "amcode": 4,
   "pvcode": 31
 },
 {
   "id": 3105,
   "name_th": "อำเภอหนองกี่",
   "province_th": "บุรีรัมย์",
   "amcode": 5,
   "pvcode": 31
 },
 {
   "id": 3106,
   "name_th": "อำเภอละหานทราย",
   "province_th": "บุรีรัมย์",
   "amcode": 6,
   "pvcode": 31
 },
 {
   "id": 3107,
   "name_th": "อำเภอประโคนชัย",
   "province_th": "บุรีรัมย์",
   "amcode": 7,
   "pvcode": 31
 },
 {
   "id": 3108,
   "name_th": "อำเภอบ้านกรวด",
   "province_th": "บุรีรัมย์",
   "amcode": 8,
   "pvcode": 31
 },
 {
   "id": 3109,
   "name_th": "อำเภอพุทไธสง",
   "province_th": "บุรีรัมย์",
   "amcode": 9,
   "pvcode": 31
 },
 {
   "id": 3110,
   "name_th": "อำเภอลำปลายมาศ",
   "province_th": "บุรีรัมย์",
   "amcode": 10,
   "pvcode": 31
 },
 {
   "id": 3111,
   "name_th": "อำเภอสตึก",
   "province_th": "บุรีรัมย์",
   "amcode": 11,
   "pvcode": 31
 },
 {
   "id": 3112,
   "name_th": "อำเภอปะคำ",
   "province_th": "บุรีรัมย์",
   "amcode": 12,
   "pvcode": 31
 },
 {
   "id": 3113,
   "name_th": "อำเภอนาโพธิ์",
   "province_th": "บุรีรัมย์",
   "amcode": 13,
   "pvcode": 31
 },
 {
   "id": 3114,
   "name_th": "อำเภอหนองหงส์",
   "province_th": "บุรีรัมย์",
   "amcode": 14,
   "pvcode": 31
 },
 {
   "id": 3115,
   "name_th": "อำเภอพลับพลาชัย",
   "province_th": "บุรีรัมย์",
   "amcode": 15,
   "pvcode": 31
 },
 {
   "id": 3116,
   "name_th": "อำเภอห้วยราช",
   "province_th": "บุรีรัมย์",
   "amcode": 16,
   "pvcode": 31
 },
 {
   "id": 3117,
   "name_th": "อำเภอโนนสุวรรณ",
   "province_th": "บุรีรัมย์",
   "amcode": 17,
   "pvcode": 31
 },
 {
   "id": 3118,
   "name_th": "อำเภอชำนิ",
   "province_th": "บุรีรัมย์",
   "amcode": 18,
   "pvcode": 31
 },
 {
   "id": 3119,
   "name_th": "อำเภอบ้านใหม่ไชยพจน์",
   "province_th": "บุรีรัมย์",
   "amcode": 19,
   "pvcode": 31
 },
 {
   "id": 3120,
   "name_th": "อำเภอโนนดินแดง",
   "province_th": "บุรีรัมย์",
   "amcode": 20,
   "pvcode": 31
 },
 {
   "id": 3121,
   "name_th": "อำเภอบ้านด่าน",
   "province_th": "บุรีรัมย์",
   "amcode": 21,
   "pvcode": 31
 },
 {
   "id": 3122,
   "name_th": "อำเภอแคนดง",
   "province_th": "บุรีรัมย์",
   "amcode": 22,
   "pvcode": 31
 },
 {
   "id": 3123,
   "name_th": "อำเภอเฉลิมพระเกียรติ",
   "province_th": "บุรีรัมย์",
   "amcode": 23,
   "pvcode": 31
 },
 {
   "id": 3201,
   "name_th": "อำเภอเมืองสุรินทร์",
   "province_th": "สุรินทร์",
   "amcode": 1,
   "pvcode": 32
 },
 {
   "id": 3202,
   "name_th": "อำเภอชุมพลบุรี",
   "province_th": "สุรินทร์",
   "amcode": 2,
   "pvcode": 32
 },
 {
   "id": 3203,
   "name_th": "อำเภอท่าตูม",
   "province_th": "สุรินทร์",
   "amcode": 3,
   "pvcode": 32
 },
 {
   "id": 3204,
   "name_th": "อำเภอจอมพระ",
   "province_th": "สุรินทร์",
   "amcode": 4,
   "pvcode": 32
 },
 {
   "id": 3205,
   "name_th": "อำเภอปราสาท",
   "province_th": "สุรินทร์",
   "amcode": 5,
   "pvcode": 32
 },
 {
   "id": 3206,
   "name_th": "อำเภอกาบเชิง",
   "province_th": "สุรินทร์",
   "amcode": 6,
   "pvcode": 32
 },
 {
   "id": 3207,
   "name_th": "อำเภอรัตนบุรี",
   "province_th": "สุรินทร์",
   "amcode": 7,
   "pvcode": 32
 },
 {
   "id": 3208,
   "name_th": "อำเภอสนม",
   "province_th": "สุรินทร์",
   "amcode": 8,
   "pvcode": 32
 },
 {
   "id": 3209,
   "name_th": "อำเภอศีขรภูมิ",
   "province_th": "สุรินทร์",
   "amcode": 9,
   "pvcode": 32
 },
 {
   "id": 3210,
   "name_th": "อำเภอสังขะ",
   "province_th": "สุรินทร์",
   "amcode": 10,
   "pvcode": 32
 },
 {
   "id": 3211,
   "name_th": "อำเภอลำดวน",
   "province_th": "สุรินทร์",
   "amcode": 11,
   "pvcode": 32
 },
 {
   "id": 3212,
   "name_th": "อำเภอสำโรงทาบ",
   "province_th": "สุรินทร์",
   "amcode": 12,
   "pvcode": 32
 },
 {
   "id": 3213,
   "name_th": "อำเภอบัวเชด",
   "province_th": "สุรินทร์",
   "amcode": 13,
   "pvcode": 32
 },
 {
   "id": 3214,
   "name_th": "อำเภอพนมดงรัก",
   "province_th": "สุรินทร์",
   "amcode": 14,
   "pvcode": 32
 },
 {
   "id": 3215,
   "name_th": "อำเภอศรีณรงค์",
   "province_th": "สุรินทร์",
   "amcode": 15,
   "pvcode": 32
 },
 {
   "id": 3216,
   "name_th": "อำเภอเขวาสินรินทร์",
   "province_th": "สุรินทร์",
   "amcode": 16,
   "pvcode": 32
 },
 {
   "id": 3217,
   "name_th": "อำเภอโนนนารายณ์",
   "province_th": "สุรินทร์",
   "amcode": 17,
   "pvcode": 32
 },
 {
   "id": 3301,
   "name_th": "อำเภอเมืองศรีสะเกษ",
   "province_th": "ศรีสะเกษ",
   "amcode": 1,
   "pvcode": 33
 },
 {
   "id": 3302,
   "name_th": "อำเภอยางชุมน้อย",
   "province_th": "ศรีสะเกษ",
   "amcode": 2,
   "pvcode": 33
 },
 {
   "id": 3303,
   "name_th": "อำเภอกันทรารมย์",
   "province_th": "ศรีสะเกษ",
   "amcode": 3,
   "pvcode": 33
 },
 {
   "id": 3304,
   "name_th": "อำเภอกันทรลักษ์",
   "province_th": "ศรีสะเกษ",
   "amcode": 4,
   "pvcode": 33
 },
 {
   "id": 3305,
   "name_th": "อำเภอขุขันธ์",
   "province_th": "ศรีสะเกษ",
   "amcode": 5,
   "pvcode": 33
 },
 {
   "id": 3306,
   "name_th": "อำเภอไพรบึง",
   "province_th": "ศรีสะเกษ",
   "amcode": 6,
   "pvcode": 33
 },
 {
   "id": 3307,
   "name_th": "อำเภอปรางค์กู่",
   "province_th": "ศรีสะเกษ",
   "amcode": 7,
   "pvcode": 33
 },
 {
   "id": 3308,
   "name_th": "อำเภอขุนหาญ",
   "province_th": "ศรีสะเกษ",
   "amcode": 8,
   "pvcode": 33
 },
 {
   "id": 3309,
   "name_th": "อำเภอราษีไศล",
   "province_th": "ศรีสะเกษ",
   "amcode": 9,
   "pvcode": 33
 },
 {
   "id": 3310,
   "name_th": "อำเภออุทุมพรพิสัย",
   "province_th": "ศรีสะเกษ",
   "amcode": 10,
   "pvcode": 33
 },
 {
   "id": 3311,
   "name_th": "อำเภอบึงบูรพ์",
   "province_th": "ศรีสะเกษ",
   "amcode": 11,
   "pvcode": 33
 },
 {
   "id": 3312,
   "name_th": "อำเภอห้วยทับทัน",
   "province_th": "ศรีสะเกษ",
   "amcode": 12,
   "pvcode": 33
 },
 {
   "id": 3313,
   "name_th": "อำเภอโนนคูณ",
   "province_th": "ศรีสะเกษ",
   "amcode": 13,
   "pvcode": 33
 },
 {
   "id": 3314,
   "name_th": "อำเภอศรีรัตนะ",
   "province_th": "ศรีสะเกษ",
   "amcode": 14,
   "pvcode": 33
 },
 {
   "id": 3315,
   "name_th": "อำเภอน้ำเกลี้ยง",
   "province_th": "ศรีสะเกษ",
   "amcode": 15,
   "pvcode": 33
 },
 {
   "id": 3316,
   "name_th": "อำเภอวังหิน",
   "province_th": "ศรีสะเกษ",
   "amcode": 16,
   "pvcode": 33
 },
 {
   "id": 3317,
   "name_th": "อำเภอภูสิงห์",
   "province_th": "ศรีสะเกษ",
   "amcode": 17,
   "pvcode": 33
 },
 {
   "id": 3318,
   "name_th": "อำเภอเมืองจันทร์",
   "province_th": "ศรีสะเกษ",
   "amcode": 18,
   "pvcode": 33
 },
 {
   "id": 3319,
   "name_th": "อำเภอเบญจลักษ์",
   "province_th": "ศรีสะเกษ",
   "amcode": 19,
   "pvcode": 33
 },
 {
   "id": 3320,
   "name_th": "อำเภอพยุห์",
   "province_th": "ศรีสะเกษ",
   "amcode": 20,
   "pvcode": 33
 },
 {
   "id": 3321,
   "name_th": "อำเภอโพธิ์ศรีสุวรรณ",
   "province_th": "ศรีสะเกษ",
   "amcode": 21,
   "pvcode": 33
 },
 {
   "id": 3322,
   "name_th": "อำเภอศิลาลาด",
   "province_th": "ศรีสะเกษ",
   "amcode": 22,
   "pvcode": 33
 },
 {
   "id": 3401,
   "name_th": "อำเภอเมืองอุบลราชธานี",
   "province_th": "อุบลราชธานี",
   "amcode": 1,
   "pvcode": 34
 },
 {
   "id": 3402,
   "name_th": "อำเภอศรีเมืองใหม่",
   "province_th": "อุบลราชธานี",
   "amcode": 2,
   "pvcode": 34
 },
 {
   "id": 3403,
   "name_th": "อำเภอโขงเจียม",
   "province_th": "อุบลราชธานี",
   "amcode": 3,
   "pvcode": 34
 },
 {
   "id": 3404,
   "name_th": "อำเภอเขื่องใน",
   "province_th": "อุบลราชธานี",
   "amcode": 4,
   "pvcode": 34
 },
 {
   "id": 3405,
   "name_th": "อำเภอเขมราฐ",
   "province_th": "อุบลราชธานี",
   "amcode": 5,
   "pvcode": 34
 },
 {
   "id": 3407,
   "name_th": "อำเภอเดชอุดม",
   "province_th": "อุบลราชธานี",
   "amcode": 7,
   "pvcode": 34
 },
 {
   "id": 3408,
   "name_th": "อำเภอนาจะหลวย",
   "province_th": "อุบลราชธานี",
   "amcode": 8,
   "pvcode": 34
 },
 {
   "id": 3409,
   "name_th": "อำเภอน้ำยืน",
   "province_th": "อุบลราชธานี",
   "amcode": 9,
   "pvcode": 34
 },
 {
   "id": 3410,
   "name_th": "อำเภอบุณฑริก",
   "province_th": "อุบลราชธานี",
   "amcode": 10,
   "pvcode": 34
 },
 {
   "id": 3411,
   "name_th": "อำเภอตระการพืชผล",
   "province_th": "อุบลราชธานี",
   "amcode": 11,
   "pvcode": 34
 },
 {
   "id": 3412,
   "name_th": "อำเภอกุดข้าวปุ้น",
   "province_th": "อุบลราชธานี",
   "amcode": 12,
   "pvcode": 34
 },
 {
   "id": 3414,
   "name_th": "อำเภอม่วงสามสิบ",
   "province_th": "อุบลราชธานี",
   "amcode": 14,
   "pvcode": 34
 },
 {
   "id": 3415,
   "name_th": "อำเภอวารินชำราบ",
   "province_th": "อุบลราชธานี",
   "amcode": 15,
   "pvcode": 34
 },
 {
   "id": 3419,
   "name_th": "อำเภอพิบูลมังสาหาร",
   "province_th": "อุบลราชธานี",
   "amcode": 19,
   "pvcode": 34
 },
 {
   "id": 3420,
   "name_th": "อำเภอตาลสุม",
   "province_th": "อุบลราชธานี",
   "amcode": 20,
   "pvcode": 34
 },
 {
   "id": 3421,
   "name_th": "อำเภอโพธิ์ไทร",
   "province_th": "อุบลราชธานี",
   "amcode": 21,
   "pvcode": 34
 },
 {
   "id": 3422,
   "name_th": "อำเภอสำโรง",
   "province_th": "อุบลราชธานี",
   "amcode": 22,
   "pvcode": 34
 },
 {
   "id": 3424,
   "name_th": "อำเภอดอนมดแดง",
   "province_th": "อุบลราชธานี",
   "amcode": 24,
   "pvcode": 34
 },
 {
   "id": 3425,
   "name_th": "อำเภอสิรินธร",
   "province_th": "อุบลราชธานี",
   "amcode": 25,
   "pvcode": 34
 },
 {
   "id": 3426,
   "name_th": "อำเภอทุ่งศรีอุดม",
   "province_th": "อุบลราชธานี",
   "amcode": 26,
   "pvcode": 34
 },
 {
   "id": 3429,
   "name_th": "อำเภอนาเยีย",
   "province_th": "อุบลราชธานี",
   "amcode": 29,
   "pvcode": 34
 },
 {
   "id": 3430,
   "name_th": "อำเภอนาตาล",
   "province_th": "อุบลราชธานี",
   "amcode": 30,
   "pvcode": 34
 },
 {
   "id": 3431,
   "name_th": "อำเภอเหล่าเสือโก้ก",
   "province_th": "อุบลราชธานี",
   "amcode": 31,
   "pvcode": 34
 },
 {
   "id": 3432,
   "name_th": "อำเภอสว่างวีระวงศ์",
   "province_th": "อุบลราชธานี",
   "amcode": 32,
   "pvcode": 34
 },
 {
   "id": 3433,
   "name_th": "อำเภอน้ำขุ่น",
   "province_th": "อุบลราชธานี",
   "amcode": 33,
   "pvcode": 34
 },
 {
   "id": 3501,
   "name_th": "อำเภอเมืองยโสธร",
   "province_th": "ยโสธร",
   "amcode": 1,
   "pvcode": 35
 },
 {
   "id": 3502,
   "name_th": "อำเภอทรายมูล",
   "province_th": "ยโสธร",
   "amcode": 2,
   "pvcode": 35
 },
 {
   "id": 3503,
   "name_th": "อำเภอกุดชุม",
   "province_th": "ยโสธร",
   "amcode": 3,
   "pvcode": 35
 },
 {
   "id": 3504,
   "name_th": "อำเภอคำเขื่อนแก้ว",
   "province_th": "ยโสธร",
   "amcode": 4,
   "pvcode": 35
 },
 {
   "id": 3505,
   "name_th": "อำเภอป่าติ้ว",
   "province_th": "ยโสธร",
   "amcode": 5,
   "pvcode": 35
 },
 {
   "id": 3506,
   "name_th": "อำเภอมหาชนะชัย",
   "province_th": "ยโสธร",
   "amcode": 6,
   "pvcode": 35
 },
 {
   "id": 3507,
   "name_th": "อำเภอค้อวัง",
   "province_th": "ยโสธร",
   "amcode": 7,
   "pvcode": 35
 },
 {
   "id": 3508,
   "name_th": "อำเภอเลิงนกทา",
   "province_th": "ยโสธร",
   "amcode": 8,
   "pvcode": 35
 },
 {
   "id": 3509,
   "name_th": "อำเภอไทยเจริญ",
   "province_th": "ยโสธร",
   "amcode": 9,
   "pvcode": 35
 },
 {
   "id": 3601,
   "name_th": "อำเภอเมืองชัยภูมิ",
   "province_th": "ชัยภูมิ",
   "amcode": 1,
   "pvcode": 36
 },
 {
   "id": 3602,
   "name_th": "อำเภอบ้านเขว้า",
   "province_th": "ชัยภูมิ",
   "amcode": 2,
   "pvcode": 36
 },
 {
   "id": 3603,
   "name_th": "อำเภอคอนสวรรค์",
   "province_th": "ชัยภูมิ",
   "amcode": 3,
   "pvcode": 36
 },
 {
   "id": 3604,
   "name_th": "อำเภอเกษตรสมบูรณ์",
   "province_th": "ชัยภูมิ",
   "amcode": 4,
   "pvcode": 36
 },
 {
   "id": 3605,
   "name_th": "อำเภอหนองบัวแดง",
   "province_th": "ชัยภูมิ",
   "amcode": 5,
   "pvcode": 36
 },
 {
   "id": 3606,
   "name_th": "อำเภอจัตุรัส",
   "province_th": "ชัยภูมิ",
   "amcode": 6,
   "pvcode": 36
 },
 {
   "id": 3607,
   "name_th": "อำเภอบำเหน็จณรงค์",
   "province_th": "ชัยภูมิ",
   "amcode": 7,
   "pvcode": 36
 },
 {
   "id": 3608,
   "name_th": "อำเภอหนองบัวระเหว",
   "province_th": "ชัยภูมิ",
   "amcode": 8,
   "pvcode": 36
 },
 {
   "id": 3609,
   "name_th": "อำเภอเทพสถิต",
   "province_th": "ชัยภูมิ",
   "amcode": 9,
   "pvcode": 36
 },
 {
   "id": 3610,
   "name_th": "อำเภอภูเขียว",
   "province_th": "ชัยภูมิ",
   "amcode": 10,
   "pvcode": 36
 },
 {
   "id": 3611,
   "name_th": "อำเภอบ้านแท่น",
   "province_th": "ชัยภูมิ",
   "amcode": 11,
   "pvcode": 36
 },
 {
   "id": 3612,
   "name_th": "อำเภอแก้งคร้อ",
   "province_th": "ชัยภูมิ",
   "amcode": 12,
   "pvcode": 36
 },
 {
   "id": 3613,
   "name_th": "อำเภอคอนสาร",
   "province_th": "ชัยภูมิ",
   "amcode": 13,
   "pvcode": 36
 },
 {
   "id": 3614,
   "name_th": "อำเภอภักดีชุมพล",
   "province_th": "ชัยภูมิ",
   "amcode": 14,
   "pvcode": 36
 },
 {
   "id": 3615,
   "name_th": "อำเภอเนินสง่า",
   "province_th": "ชัยภูมิ",
   "amcode": 15,
   "pvcode": 36
 },
 {
   "id": 3616,
   "name_th": "อำเภอซับใหญ่",
   "province_th": "ชัยภูมิ",
   "amcode": 16,
   "pvcode": 36
 },
 {
   "id": 3701,
   "name_th": "อำเภอเมืองอำนาจเจริญ",
   "province_th": "อำนาจเจริญ",
   "amcode": 1,
   "pvcode": 37
 },
 {
   "id": 3702,
   "name_th": "อำเภอชานุมาน",
   "province_th": "อำนาจเจริญ",
   "amcode": 2,
   "pvcode": 37
 },
 {
   "id": 3703,
   "name_th": "อำเภอปทุมราชวงศา",
   "province_th": "อำนาจเจริญ",
   "amcode": 3,
   "pvcode": 37
 },
 {
   "id": 3704,
   "name_th": "อำเภอพนา",
   "province_th": "อำนาจเจริญ",
   "amcode": 4,
   "pvcode": 37
 },
 {
   "id": 3705,
   "name_th": "อำเภอเสนางคนิคม",
   "province_th": "อำนาจเจริญ",
   "amcode": 5,
   "pvcode": 37
 },
 {
   "id": 3706,
   "name_th": "อำเภอหัวตะพาน",
   "province_th": "อำนาจเจริญ",
   "amcode": 6,
   "pvcode": 37
 },
 {
   "id": 3707,
   "name_th": "อำเภอลืออำนาจ",
   "province_th": "อำนาจเจริญ",
   "amcode": 7,
   "pvcode": 37
 },
 {
   "id": 3801,
   "name_th": "อำเภอเมืองบึงกาฬ",
   "province_th": "บึงกาฬ",
   "amcode": 1,
   "pvcode": 38
 },
 {
   "id": 3802,
   "name_th": "อำเภอพรเจริญ",
   "province_th": "บึงกาฬ",
   "amcode": 2,
   "pvcode": 38
 },
 {
   "id": 3803,
   "name_th": "อำเภอโซ่พิสัย",
   "province_th": "บึงกาฬ",
   "amcode": 3,
   "pvcode": 38
 },
 {
   "id": 3804,
   "name_th": "อำเภอเซกา",
   "province_th": "บึงกาฬ",
   "amcode": 4,
   "pvcode": 38
 },
 {
   "id": 3805,
   "name_th": "อำเภอปากคาด",
   "province_th": "บึงกาฬ",
   "amcode": 5,
   "pvcode": 38
 },
 {
   "id": 3806,
   "name_th": "อำเภอบึงโขงหลง",
   "province_th": "บึงกาฬ",
   "amcode": 6,
   "pvcode": 38
 },
 {
   "id": 3807,
   "name_th": "อำเภอศรีวิไล",
   "province_th": "บึงกาฬ",
   "amcode": 7,
   "pvcode": 38
 },
 {
   "id": 3808,
   "name_th": "อำเภอบุ่งคล้า",
   "province_th": "บึงกาฬ",
   "amcode": 8,
   "pvcode": 38
 },
 {
   "id": 3901,
   "name_th": "อำเภอเมืองหนองบัวลำภู",
   "province_th": "หนองบัวลำภู",
   "amcode": 1,
   "pvcode": 39
 },
 {
   "id": 3902,
   "name_th": "อำเภอนากลาง",
   "province_th": "หนองบัวลำภู",
   "amcode": 2,
   "pvcode": 39
 },
 {
   "id": 3903,
   "name_th": "อำเภอโนนสัง",
   "province_th": "หนองบัวลำภู",
   "amcode": 3,
   "pvcode": 39
 },
 {
   "id": 3904,
   "name_th": "อำเภอศรีบุญเรือง",
   "province_th": "หนองบัวลำภู",
   "amcode": 4,
   "pvcode": 39
 },
 {
   "id": 3905,
   "name_th": "อำเภอสุวรรณคูหา",
   "province_th": "หนองบัวลำภู",
   "amcode": 5,
   "pvcode": 39
 },
 {
   "id": 3906,
   "name_th": "อำเภอนาวัง",
   "province_th": "หนองบัวลำภู",
   "amcode": 6,
   "pvcode": 39
 },
 {
   "id": 4001,
   "name_th": "อำเภอเมืองขอนแก่น",
   "province_th": "ขอนแก่น",
   "amcode": 1,
   "pvcode": 40
 },
 {
   "id": 4002,
   "name_th": "อำเภอบ้านฝาง",
   "province_th": "ขอนแก่น",
   "amcode": 2,
   "pvcode": 40
 },
 {
   "id": 4003,
   "name_th": "อำเภอพระยืน",
   "province_th": "ขอนแก่น",
   "amcode": 3,
   "pvcode": 40
 },
 {
   "id": 4004,
   "name_th": "อำเภอหนองเรือ",
   "province_th": "ขอนแก่น",
   "amcode": 4,
   "pvcode": 40
 },
 {
   "id": 4005,
   "name_th": "อำเภอชุมแพ",
   "province_th": "ขอนแก่น",
   "amcode": 5,
   "pvcode": 40
 },
 {
   "id": 4006,
   "name_th": "อำเภอสีชมพู",
   "province_th": "ขอนแก่น",
   "amcode": 6,
   "pvcode": 40
 },
 {
   "id": 4007,
   "name_th": "อำเภอน้ำพอง",
   "province_th": "ขอนแก่น",
   "amcode": 7,
   "pvcode": 40
 },
 {
   "id": 4008,
   "name_th": "อำเภออุบลรัตน์",
   "province_th": "ขอนแก่น",
   "amcode": 8,
   "pvcode": 40
 },
 {
   "id": 4009,
   "name_th": "อำเภอกระนวน",
   "province_th": "ขอนแก่น",
   "amcode": 9,
   "pvcode": 40
 },
 {
   "id": 4010,
   "name_th": "อำเภอบ้านไผ่",
   "province_th": "ขอนแก่น",
   "amcode": 10,
   "pvcode": 40
 },
 {
   "id": 4011,
   "name_th": "อำเภอเปือยน้อย",
   "province_th": "ขอนแก่น",
   "amcode": 11,
   "pvcode": 40
 },
 {
   "id": 4012,
   "name_th": "อำเภอพล",
   "province_th": "ขอนแก่น",
   "amcode": 12,
   "pvcode": 40
 },
 {
   "id": 4013,
   "name_th": "อำเภอแวงใหญ่",
   "province_th": "ขอนแก่น",
   "amcode": 13,
   "pvcode": 40
 },
 {
   "id": 4014,
   "name_th": "อำเภอแวงน้อย",
   "province_th": "ขอนแก่น",
   "amcode": 14,
   "pvcode": 40
 },
 {
   "id": 4015,
   "name_th": "อำเภอหนองสองห้อง",
   "province_th": "ขอนแก่น",
   "amcode": 15,
   "pvcode": 40
 },
 {
   "id": 4016,
   "name_th": "อำเภอภูเวียง",
   "province_th": "ขอนแก่น",
   "amcode": 16,
   "pvcode": 40
 },
 {
   "id": 4017,
   "name_th": "อำเภอมัญจาคีรี",
   "province_th": "ขอนแก่น",
   "amcode": 17,
   "pvcode": 40
 },
 {
   "id": 4018,
   "name_th": "อำเภอชนบท",
   "province_th": "ขอนแก่น",
   "amcode": 18,
   "pvcode": 40
 },
 {
   "id": 4019,
   "name_th": "อำเภอเขาสวนกวาง",
   "province_th": "ขอนแก่น",
   "amcode": 19,
   "pvcode": 40
 },
 {
   "id": 4020,
   "name_th": "อำเภอภูผาม่าน",
   "province_th": "ขอนแก่น",
   "amcode": 20,
   "pvcode": 40
 },
 {
   "id": 4021,
   "name_th": "อำเภอซำสูง",
   "province_th": "ขอนแก่น",
   "amcode": 21,
   "pvcode": 40
 },
 {
   "id": 4022,
   "name_th": "อำเภอโคกโพธิ์ไชย",
   "province_th": "ขอนแก่น",
   "amcode": 22,
   "pvcode": 40
 },
 {
   "id": 4023,
   "name_th": "อำเภอหนองนาคำ",
   "province_th": "ขอนแก่น",
   "amcode": 23,
   "pvcode": 40
 },
 {
   "id": 4024,
   "name_th": "อำเภอบ้านแฮด",
   "province_th": "ขอนแก่น",
   "amcode": 24,
   "pvcode": 40
 },
 {
   "id": 4025,
   "name_th": "อำเภอโนนศิลา",
   "province_th": "ขอนแก่น",
   "amcode": 25,
   "pvcode": 40
 },
 {
   "id": 4029,
   "name_th": "อำเภอเวียงเก่า",
   "province_th": "ขอนแก่น",
   "amcode": 29,
   "pvcode": 40
 },
 {
   "id": 4101,
   "name_th": "อำเภอเมืองอุดรธานี",
   "province_th": "อุดรธานี",
   "amcode": 1,
   "pvcode": 41
 },
 {
   "id": 4102,
   "name_th": "อำเภอกุดจับ",
   "province_th": "อุดรธานี",
   "amcode": 2,
   "pvcode": 41
 },
 {
   "id": 4103,
   "name_th": "อำเภอหนองวัวซอ",
   "province_th": "อุดรธานี",
   "amcode": 3,
   "pvcode": 41
 },
 {
   "id": 4104,
   "name_th": "อำเภอกุมภวาปี",
   "province_th": "อุดรธานี",
   "amcode": 4,
   "pvcode": 41
 },
 {
   "id": 4105,
   "name_th": "อำเภอโนนสะอาด",
   "province_th": "อุดรธานี",
   "amcode": 5,
   "pvcode": 41
 },
 {
   "id": 4106,
   "name_th": "อำเภอหนองหาน",
   "province_th": "อุดรธานี",
   "amcode": 6,
   "pvcode": 41
 },
 {
   "id": 4107,
   "name_th": "อำเภอทุ่งฝน",
   "province_th": "อุดรธานี",
   "amcode": 7,
   "pvcode": 41
 },
 {
   "id": 4108,
   "name_th": "อำเภอไชยวาน",
   "province_th": "อุดรธานี",
   "amcode": 8,
   "pvcode": 41
 },
 {
   "id": 4109,
   "name_th": "อำเภอศรีธาตุ",
   "province_th": "อุดรธานี",
   "amcode": 9,
   "pvcode": 41
 },
 {
   "id": 4110,
   "name_th": "อำเภอวังสามหมอ",
   "province_th": "อุดรธานี",
   "amcode": 10,
   "pvcode": 41
 },
 {
   "id": 4111,
   "name_th": "อำเภอบ้านดุง",
   "province_th": "อุดรธานี",
   "amcode": 11,
   "pvcode": 41
 },
 {
   "id": 4117,
   "name_th": "อำเภอบ้านผือ",
   "province_th": "อุดรธานี",
   "amcode": 17,
   "pvcode": 41
 },
 {
   "id": 4118,
   "name_th": "อำเภอน้ำโสม",
   "province_th": "อุดรธานี",
   "amcode": 18,
   "pvcode": 41
 },
 {
   "id": 4119,
   "name_th": "อำเภอเพ็ญ",
   "province_th": "อุดรธานี",
   "amcode": 19,
   "pvcode": 41
 },
 {
   "id": 4120,
   "name_th": "อำเภอสร้างคอม",
   "province_th": "อุดรธานี",
   "amcode": 20,
   "pvcode": 41
 },
 {
   "id": 4121,
   "name_th": "อำเภอหนองแสง",
   "province_th": "อุดรธานี",
   "amcode": 21,
   "pvcode": 41
 },
 {
   "id": 4122,
   "name_th": "อำเภอนายูง",
   "province_th": "อุดรธานี",
   "amcode": 22,
   "pvcode": 41
 },
 {
   "id": 4123,
   "name_th": "อำเภอพิบูลย์รักษ์",
   "province_th": "อุดรธานี",
   "amcode": 23,
   "pvcode": 41
 },
 {
   "id": 4124,
   "name_th": "อำเภอกู่แก้ว",
   "province_th": "อุดรธานี",
   "amcode": 24,
   "pvcode": 41
 },
 {
   "id": 4125,
   "name_th": "อำเภอประจักษ์ศิลปาคม",
   "province_th": "อุดรธานี",
   "amcode": 25,
   "pvcode": 41
 },
 {
   "id": 4201,
   "name_th": "อำเภอเมืองเลย",
   "province_th": "เลย",
   "amcode": 1,
   "pvcode": 42
 },
 {
   "id": 4202,
   "name_th": "อำเภอนาด้วง",
   "province_th": "เลย",
   "amcode": 2,
   "pvcode": 42
 },
 {
   "id": 4203,
   "name_th": "อำเภอเชียงคาน",
   "province_th": "เลย",
   "amcode": 3,
   "pvcode": 42
 },
 {
   "id": 4204,
   "name_th": "อำเภอปากชม",
   "province_th": "เลย",
   "amcode": 4,
   "pvcode": 42
 },
 {
   "id": 4205,
   "name_th": "อำเภอด่านซ้าย",
   "province_th": "เลย",
   "amcode": 5,
   "pvcode": 42
 },
 {
   "id": 4206,
   "name_th": "อำเภอนาแห้ว",
   "province_th": "เลย",
   "amcode": 6,
   "pvcode": 42
 },
 {
   "id": 4207,
   "name_th": "อำเภอภูเรือ",
   "province_th": "เลย",
   "amcode": 7,
   "pvcode": 42
 },
 {
   "id": 4208,
   "name_th": "อำเภอท่าลี่",
   "province_th": "เลย",
   "amcode": 8,
   "pvcode": 42
 },
 {
   "id": 4209,
   "name_th": "อำเภอวังสะพุง",
   "province_th": "เลย",
   "amcode": 9,
   "pvcode": 42
 },
 {
   "id": 4210,
   "name_th": "อำเภอภูกระดึง",
   "province_th": "เลย",
   "amcode": 10,
   "pvcode": 42
 },
 {
   "id": 4211,
   "name_th": "อำเภอภูหลวง",
   "province_th": "เลย",
   "amcode": 11,
   "pvcode": 42
 },
 {
   "id": 4212,
   "name_th": "อำเภอผาขาว",
   "province_th": "เลย",
   "amcode": 12,
   "pvcode": 42
 },
 {
   "id": 4213,
   "name_th": "อำเภอเอราวัณ",
   "province_th": "เลย",
   "amcode": 13,
   "pvcode": 42
 },
 {
   "id": 4214,
   "name_th": "อำเภอหนองหิน",
   "province_th": "เลย",
   "amcode": 14,
   "pvcode": 42
 },
 {
   "id": 4301,
   "name_th": "อำเภอเมืองหนองคาย",
   "province_th": "หนองคาย",
   "amcode": 1,
   "pvcode": 43
 },
 {
   "id": 4302,
   "name_th": "อำเภอท่าบ่อ",
   "province_th": "หนองคาย",
   "amcode": 2,
   "pvcode": 43
 },
 {
   "id": 4305,
   "name_th": "อำเภอโพนพิสัย",
   "province_th": "หนองคาย",
   "amcode": 5,
   "pvcode": 43
 },
 {
   "id": 4307,
   "name_th": "อำเภอศรีเชียงใหม่",
   "province_th": "หนองคาย",
   "amcode": 7,
   "pvcode": 43
 },
 {
   "id": 4308,
   "name_th": "อำเภอสังคม",
   "province_th": "หนองคาย",
   "amcode": 8,
   "pvcode": 43
 },
 {
   "id": 4314,
   "name_th": "อำเภอสระใคร",
   "province_th": "หนองคาย",
   "amcode": 14,
   "pvcode": 43
 },
 {
   "id": 4315,
   "name_th": "อำเภอเฝ้าไร่",
   "province_th": "หนองคาย",
   "amcode": 15,
   "pvcode": 43
 },
 {
   "id": 4316,
   "name_th": "อำเภอรัตนวาปี",
   "province_th": "หนองคาย",
   "amcode": 16,
   "pvcode": 43
 },
 {
   "id": 4317,
   "name_th": "อำเภอโพธิ์ตาก",
   "province_th": "หนองคาย",
   "amcode": 17,
   "pvcode": 43
 },
 {
   "id": 4401,
   "name_th": "อำเภอเมืองมหาสารคาม",
   "province_th": "มหาสารคาม",
   "amcode": 1,
   "pvcode": 44
 },
 {
   "id": 4402,
   "name_th": "อำเภอแกดำ",
   "province_th": "มหาสารคาม",
   "amcode": 2,
   "pvcode": 44
 },
 {
   "id": 4403,
   "name_th": "อำเภอโกสุมพิสัย",
   "province_th": "มหาสารคาม",
   "amcode": 3,
   "pvcode": 44
 },
 {
   "id": 4404,
   "name_th": "อำเภอกันทรวิชัย",
   "province_th": "มหาสารคาม",
   "amcode": 4,
   "pvcode": 44
 },
 {
   "id": 4405,
   "name_th": "อำเภอเชียงยืน",
   "province_th": "มหาสารคาม",
   "amcode": 5,
   "pvcode": 44
 },
 {
   "id": 4406,
   "name_th": "อำเภอบรบือ",
   "province_th": "มหาสารคาม",
   "amcode": 6,
   "pvcode": 44
 },
 {
   "id": 4407,
   "name_th": "อำเภอนาเชือก",
   "province_th": "มหาสารคาม",
   "amcode": 7,
   "pvcode": 44
 },
 {
   "id": 4408,
   "name_th": "อำเภอพยัคฆภูมิพิสัย",
   "province_th": "มหาสารคาม",
   "amcode": 8,
   "pvcode": 44
 },
 {
   "id": 4409,
   "name_th": "อำเภอวาปีปทุม",
   "province_th": "มหาสารคาม",
   "amcode": 9,
   "pvcode": 44
 },
 {
   "id": 4410,
   "name_th": "อำเภอนาดูน",
   "province_th": "มหาสารคาม",
   "amcode": 10,
   "pvcode": 44
 },
 {
   "id": 4411,
   "name_th": "อำเภอยางสีสุราช",
   "province_th": "มหาสารคาม",
   "amcode": 11,
   "pvcode": 44
 },
 {
   "id": 4412,
   "name_th": "อำเภอกุดรัง",
   "province_th": "มหาสารคาม",
   "amcode": 12,
   "pvcode": 44
 },
 {
   "id": 4413,
   "name_th": "อำเภอชื่นชม",
   "province_th": "มหาสารคาม",
   "amcode": 13,
   "pvcode": 44
 },
 {
   "id": 4501,
   "name_th": "อำเภอเมืองร้อยเอ็ด",
   "province_th": "ร้อยเอ็ด",
   "amcode": 1,
   "pvcode": 45
 },
 {
   "id": 4502,
   "name_th": "อำเภอเกษตรวิสัย",
   "province_th": "ร้อยเอ็ด",
   "amcode": 2,
   "pvcode": 45
 },
 {
   "id": 4503,
   "name_th": "อำเภอปทุมรัตต์",
   "province_th": "ร้อยเอ็ด",
   "amcode": 3,
   "pvcode": 45
 },
 {
   "id": 4504,
   "name_th": "อำเภอจตุรพักตรพิมาน",
   "province_th": "ร้อยเอ็ด",
   "amcode": 4,
   "pvcode": 45
 },
 {
   "id": 4505,
   "name_th": "อำเภอธวัชบุรี",
   "province_th": "ร้อยเอ็ด",
   "amcode": 5,
   "pvcode": 45
 },
 {
   "id": 4506,
   "name_th": "อำเภอพนมไพร",
   "province_th": "ร้อยเอ็ด",
   "amcode": 6,
   "pvcode": 45
 },
 {
   "id": 4507,
   "name_th": "อำเภอโพนทอง",
   "province_th": "ร้อยเอ็ด",
   "amcode": 7,
   "pvcode": 45
 },
 {
   "id": 4508,
   "name_th": "อำเภอโพธิ์ชัย",
   "province_th": "ร้อยเอ็ด",
   "amcode": 8,
   "pvcode": 45
 },
 {
   "id": 4509,
   "name_th": "อำเภอหนองพอก",
   "province_th": "ร้อยเอ็ด",
   "amcode": 9,
   "pvcode": 45
 },
 {
   "id": 4510,
   "name_th": "อำเภอเสลภูมิ",
   "province_th": "ร้อยเอ็ด",
   "amcode": 10,
   "pvcode": 45
 },
 {
   "id": 4511,
   "name_th": "อำเภอสุวรรณภูมิ",
   "province_th": "ร้อยเอ็ด",
   "amcode": 11,
   "pvcode": 45
 },
 {
   "id": 4512,
   "name_th": "อำเภอเมืองสรวง",
   "province_th": "ร้อยเอ็ด",
   "amcode": 12,
   "pvcode": 45
 },
 {
   "id": 4513,
   "name_th": "อำเภอโพนทราย",
   "province_th": "ร้อยเอ็ด",
   "amcode": 13,
   "pvcode": 45
 },
 {
   "id": 4514,
   "name_th": "อำเภออาจสามารถ",
   "province_th": "ร้อยเอ็ด",
   "amcode": 14,
   "pvcode": 45
 },
 {
   "id": 4515,
   "name_th": "อำเภอเมยวดี",
   "province_th": "ร้อยเอ็ด",
   "amcode": 15,
   "pvcode": 45
 },
 {
   "id": 4516,
   "name_th": "อำเภอศรีสมเด็จ",
   "province_th": "ร้อยเอ็ด",
   "amcode": 16,
   "pvcode": 45
 },
 {
   "id": 4517,
   "name_th": "อำเภอจังหาร",
   "province_th": "ร้อยเอ็ด",
   "amcode": 17,
   "pvcode": 45
 },
 {
   "id": 4518,
   "name_th": "อำเภอเชียงขวัญ",
   "province_th": "ร้อยเอ็ด",
   "amcode": 18,
   "pvcode": 45
 },
 {
   "id": 4519,
   "name_th": "อำเภอหนองฮี",
   "province_th": "ร้อยเอ็ด",
   "amcode": 19,
   "pvcode": 45
 },
 {
   "id": 4520,
   "name_th": "อำเภอทุ่งเขาหลวง",
   "province_th": "ร้อยเอ็ด",
   "amcode": 20,
   "pvcode": 45
 },
 {
   "id": 4601,
   "name_th": "อำเภอเมืองกาฬสินธุ์",
   "province_th": "กาฬสินธุ์",
   "amcode": 1,
   "pvcode": 46
 },
 {
   "id": 4602,
   "name_th": "อำเภอนามน",
   "province_th": "กาฬสินธุ์",
   "amcode": 2,
   "pvcode": 46
 },
 {
   "id": 4603,
   "name_th": "อำเภอกมลาไสย",
   "province_th": "กาฬสินธุ์",
   "amcode": 3,
   "pvcode": 46
 },
 {
   "id": 4604,
   "name_th": "อำเภอร่องคำ",
   "province_th": "กาฬสินธุ์",
   "amcode": 4,
   "pvcode": 46
 },
 {
   "id": 4605,
   "name_th": "อำเภอกุฉินารายณ์",
   "province_th": "กาฬสินธุ์",
   "amcode": 5,
   "pvcode": 46
 },
 {
   "id": 4606,
   "name_th": "อำเภอเขาวง",
   "province_th": "กาฬสินธุ์",
   "amcode": 6,
   "pvcode": 46
 },
 {
   "id": 4607,
   "name_th": "อำเภอยางตลาด",
   "province_th": "กาฬสินธุ์",
   "amcode": 7,
   "pvcode": 46
 },
 {
   "id": 4608,
   "name_th": "อำเภอห้วยเม็ก",
   "province_th": "กาฬสินธุ์",
   "amcode": 8,
   "pvcode": 46
 },
 {
   "id": 4609,
   "name_th": "อำเภอสหัสขันธ์",
   "province_th": "กาฬสินธุ์",
   "amcode": 9,
   "pvcode": 46
 },
 {
   "id": 4610,
   "name_th": "อำเภอคำม่วง",
   "province_th": "กาฬสินธุ์",
   "amcode": 10,
   "pvcode": 46
 },
 {
   "id": 4611,
   "name_th": "อำเภอท่าคันโท",
   "province_th": "กาฬสินธุ์",
   "amcode": 11,
   "pvcode": 46
 },
 {
   "id": 4612,
   "name_th": "อำเภอหนองกุงศรี",
   "province_th": "กาฬสินธุ์",
   "amcode": 12,
   "pvcode": 46
 },
 {
   "id": 4613,
   "name_th": "อำเภอสมเด็จ",
   "province_th": "กาฬสินธุ์",
   "amcode": 13,
   "pvcode": 46
 },
 {
   "id": 4614,
   "name_th": "อำเภอห้วยผึ้ง",
   "province_th": "กาฬสินธุ์",
   "amcode": 14,
   "pvcode": 46
 },
 {
   "id": 4615,
   "name_th": "อำเภอสามชัย",
   "province_th": "กาฬสินธุ์",
   "amcode": 15,
   "pvcode": 46
 },
 {
   "id": 4616,
   "name_th": "อำเภอนาคู",
   "province_th": "กาฬสินธุ์",
   "amcode": 16,
   "pvcode": 46
 },
 {
   "id": 4617,
   "name_th": "อำเภอดอนจาน",
   "province_th": "กาฬสินธุ์",
   "amcode": 17,
   "pvcode": 46
 },
 {
   "id": 4618,
   "name_th": "อำเภอฆ้องชัย",
   "province_th": "กาฬสินธุ์",
   "amcode": 18,
   "pvcode": 46
 },
 {
   "id": 4701,
   "name_th": "อำเภอเมืองสกลนคร",
   "province_th": "สกลนคร",
   "amcode": 1,
   "pvcode": 47
 },
 {
   "id": 4702,
   "name_th": "อำเภอกุสุมาลย์",
   "province_th": "สกลนคร",
   "amcode": 2,
   "pvcode": 47
 },
 {
   "id": 4703,
   "name_th": "อำเภอกุดบาก",
   "province_th": "สกลนคร",
   "amcode": 3,
   "pvcode": 47
 },
 {
   "id": 4704,
   "name_th": "อำเภอพรรณานิคม",
   "province_th": "สกลนคร",
   "amcode": 4,
   "pvcode": 47
 },
 {
   "id": 4705,
   "name_th": "อำเภอพังโคน",
   "province_th": "สกลนคร",
   "amcode": 5,
   "pvcode": 47
 },
 {
   "id": 4706,
   "name_th": "อำเภอวาริชภูมิ",
   "province_th": "สกลนคร",
   "amcode": 6,
   "pvcode": 47
 },
 {
   "id": 4707,
   "name_th": "อำเภอนิคมน้ำอูน",
   "province_th": "สกลนคร",
   "amcode": 7,
   "pvcode": 47
 },
 {
   "id": 4708,
   "name_th": "อำเภอวานรนิวาส",
   "province_th": "สกลนคร",
   "amcode": 8,
   "pvcode": 47
 },
 {
   "id": 4709,
   "name_th": "อำเภอคำตากล้า",
   "province_th": "สกลนคร",
   "amcode": 9,
   "pvcode": 47
 },
 {
   "id": 4710,
   "name_th": "อำเภอบ้านม่วง",
   "province_th": "สกลนคร",
   "amcode": 10,
   "pvcode": 47
 },
 {
   "id": 4711,
   "name_th": "อำเภออากาศอำนวย",
   "province_th": "สกลนคร",
   "amcode": 11,
   "pvcode": 47
 },
 {
   "id": 4712,
   "name_th": "อำเภอสว่างแดนดิน",
   "province_th": "สกลนคร",
   "amcode": 12,
   "pvcode": 47
 },
 {
   "id": 4713,
   "name_th": "อำเภอส่องดาว",
   "province_th": "สกลนคร",
   "amcode": 13,
   "pvcode": 47
 },
 {
   "id": 4714,
   "name_th": "อำเภอเต่างอย",
   "province_th": "สกลนคร",
   "amcode": 14,
   "pvcode": 47
 },
 {
   "id": 4715,
   "name_th": "อำเภอโคกศรีสุพรรณ",
   "province_th": "สกลนคร",
   "amcode": 15,
   "pvcode": 47
 },
 {
   "id": 4716,
   "name_th": "อำเภอเจริญศิลป์",
   "province_th": "สกลนคร",
   "amcode": 16,
   "pvcode": 47
 },
 {
   "id": 4717,
   "name_th": "อำเภอโพนนาแก้ว",
   "province_th": "สกลนคร",
   "amcode": 17,
   "pvcode": 47
 },
 {
   "id": 4718,
   "name_th": "อำเภอภูพาน",
   "province_th": "สกลนคร",
   "amcode": 18,
   "pvcode": 47
 },
 {
   "id": 4801,
   "name_th": "อำเภอเมืองนครพนม",
   "province_th": "นครพนม",
   "amcode": 1,
   "pvcode": 48
 },
 {
   "id": 4802,
   "name_th": "อำเภอปลาปาก",
   "province_th": "นครพนม",
   "amcode": 2,
   "pvcode": 48
 },
 {
   "id": 4803,
   "name_th": "อำเภอท่าอุเทน",
   "province_th": "นครพนม",
   "amcode": 3,
   "pvcode": 48
 },
 {
   "id": 4804,
   "name_th": "อำเภอบ้านแพง",
   "province_th": "นครพนม",
   "amcode": 4,
   "pvcode": 48
 },
 {
   "id": 4805,
   "name_th": "อำเภอธาตุพนม",
   "province_th": "นครพนม",
   "amcode": 5,
   "pvcode": 48
 },
 {
   "id": 4806,
   "name_th": "อำเภอเรณูนคร",
   "province_th": "นครพนม",
   "amcode": 6,
   "pvcode": 48
 },
 {
   "id": 4807,
   "name_th": "อำเภอนาแก",
   "province_th": "นครพนม",
   "amcode": 7,
   "pvcode": 48
 },
 {
   "id": 4808,
   "name_th": "อำเภอศรีสงคราม",
   "province_th": "นครพนม",
   "amcode": 8,
   "pvcode": 48
 },
 {
   "id": 4809,
   "name_th": "อำเภอนาหว้า",
   "province_th": "นครพนม",
   "amcode": 9,
   "pvcode": 48
 },
 {
   "id": 4810,
   "name_th": "อำเภอโพนสวรรค์",
   "province_th": "นครพนม",
   "amcode": 10,
   "pvcode": 48
 },
 {
   "id": 4811,
   "name_th": "อำเภอนาทม",
   "province_th": "นครพนม",
   "amcode": 11,
   "pvcode": 48
 },
 {
   "id": 4812,
   "name_th": "อำเภอวังยาง",
   "province_th": "นครพนม",
   "amcode": 12,
   "pvcode": 48
 },
 {
   "id": 4901,
   "name_th": "อำเภอเมืองมุกดาหาร",
   "province_th": "มุกดาหาร",
   "amcode": 1,
   "pvcode": 49
 },
 {
   "id": 4902,
   "name_th": "อำเภอนิคมคำสร้อย",
   "province_th": "มุกดาหาร",
   "amcode": 2,
   "pvcode": 49
 },
 {
   "id": 4903,
   "name_th": "อำเภอดอนตาล",
   "province_th": "มุกดาหาร",
   "amcode": 3,
   "pvcode": 49
 },
 {
   "id": 4904,
   "name_th": "อำเภอดงหลวง",
   "province_th": "มุกดาหาร",
   "amcode": 4,
   "pvcode": 49
 },
 {
   "id": 4905,
   "name_th": "อำเภอคำชะอี",
   "province_th": "มุกดาหาร",
   "amcode": 5,
   "pvcode": 49
 },
 {
   "id": 4906,
   "name_th": "อำเภอหว้านใหญ่",
   "province_th": "มุกดาหาร",
   "amcode": 6,
   "pvcode": 49
 },
 {
   "id": 4907,
   "name_th": "อำเภอหนองสูง",
   "province_th": "มุกดาหาร",
   "amcode": 7,
   "pvcode": 49
 },
 {
   "id": 5001,
   "name_th": "อำเภอเมืองเชียงใหม่",
   "province_th": "เชียงใหม่",
   "amcode": 1,
   "pvcode": 50
 },
 {
   "id": 5002,
   "name_th": "อำเภอจอมทอง",
   "province_th": "เชียงใหม่",
   "amcode": 2,
   "pvcode": 50
 },
 {
   "id": 5003,
   "name_th": "อำเภอแม่แจ่ม",
   "province_th": "เชียงใหม่",
   "amcode": 3,
   "pvcode": 50
 },
 {
   "id": 5004,
   "name_th": "อำเภอเชียงดาว",
   "province_th": "เชียงใหม่",
   "amcode": 4,
   "pvcode": 50
 },
 {
   "id": 5005,
   "name_th": "อำเภอดอยสะเก็ด",
   "province_th": "เชียงใหม่",
   "amcode": 5,
   "pvcode": 50
 },
 {
   "id": 5006,
   "name_th": "อำเภอแม่แตง",
   "province_th": "เชียงใหม่",
   "amcode": 6,
   "pvcode": 50
 },
 {
   "id": 5007,
   "name_th": "อำเภอแม่ริม",
   "province_th": "เชียงใหม่",
   "amcode": 7,
   "pvcode": 50
 },
 {
   "id": 5008,
   "name_th": "อำเภอสะเมิง",
   "province_th": "เชียงใหม่",
   "amcode": 8,
   "pvcode": 50
 },
 {
   "id": 5009,
   "name_th": "อำเภอฝาง",
   "province_th": "เชียงใหม่",
   "amcode": 9,
   "pvcode": 50
 },
 {
   "id": 5010,
   "name_th": "อำเภอแม่อาย",
   "province_th": "เชียงใหม่",
   "amcode": 10,
   "pvcode": 50
 },
 {
   "id": 5011,
   "name_th": "อำเภอพร้าว",
   "province_th": "เชียงใหม่",
   "amcode": 11,
   "pvcode": 50
 },
 {
   "id": 5012,
   "name_th": "อำเภอสันป่าตอง",
   "province_th": "เชียงใหม่",
   "amcode": 12,
   "pvcode": 50
 },
 {
   "id": 5013,
   "name_th": "อำเภอสันกำแพง",
   "province_th": "เชียงใหม่",
   "amcode": 13,
   "pvcode": 50
 },
 {
   "id": 5014,
   "name_th": "อำเภอสันทราย",
   "province_th": "เชียงใหม่",
   "amcode": 14,
   "pvcode": 50
 },
 {
   "id": 5015,
   "name_th": "อำเภอหางดง",
   "province_th": "เชียงใหม่",
   "amcode": 15,
   "pvcode": 50
 },
 {
   "id": 5016,
   "name_th": "อำเภอฮอด",
   "province_th": "เชียงใหม่",
   "amcode": 16,
   "pvcode": 50
 },
 {
   "id": 5017,
   "name_th": "อำเภอดอยเต่า",
   "province_th": "เชียงใหม่",
   "amcode": 17,
   "pvcode": 50
 },
 {
   "id": 5018,
   "name_th": "อำเภออมก๋อย",
   "province_th": "เชียงใหม่",
   "amcode": 18,
   "pvcode": 50
 },
 {
   "id": 5019,
   "name_th": "อำเภอสารภี",
   "province_th": "เชียงใหม่",
   "amcode": 19,
   "pvcode": 50
 },
 {
   "id": 5020,
   "name_th": "อำเภอเวียงแหง",
   "province_th": "เชียงใหม่",
   "amcode": 20,
   "pvcode": 50
 },
 {
   "id": 5021,
   "name_th": "อำเภอไชยปราการ",
   "province_th": "เชียงใหม่",
   "amcode": 21,
   "pvcode": 50
 },
 {
   "id": 5022,
   "name_th": "อำเภอแม่วาง",
   "province_th": "เชียงใหม่",
   "amcode": 22,
   "pvcode": 50
 },
 {
   "id": 5023,
   "name_th": "อำเภอแม่ออน",
   "province_th": "เชียงใหม่",
   "amcode": 23,
   "pvcode": 50
 },
 {
   "id": 5024,
   "name_th": "อำเภอดอยหล่อ",
   "province_th": "เชียงใหม่",
   "amcode": 24,
   "pvcode": 50
 },
 {
   "id": 5025,
   "name_th": "อำเภอกัลยาณิวัฒนา",
   "province_th": "เชียงใหม่",
   "amcode": 25,
   "pvcode": 50
 },
 {
   "id": 5101,
   "name_th": "อำเภอเมืองลำพูน",
   "province_th": "ลำพูน",
   "amcode": 1,
   "pvcode": 51
 },
 {
   "id": 5102,
   "name_th": "อำเภอแม่ทา",
   "province_th": "ลำพูน",
   "amcode": 2,
   "pvcode": 51
 },
 {
   "id": 5103,
   "name_th": "อำเภอบ้านโฮ่ง",
   "province_th": "ลำพูน",
   "amcode": 3,
   "pvcode": 51
 },
 {
   "id": 5104,
   "name_th": "อำเภอลี้",
   "province_th": "ลำพูน",
   "amcode": 4,
   "pvcode": 51
 },
 {
   "id": 5105,
   "name_th": "อำเภอทุ่งหัวช้าง",
   "province_th": "ลำพูน",
   "amcode": 5,
   "pvcode": 51
 },
 {
   "id": 5106,
   "name_th": "อำเภอป่าซาง",
   "province_th": "ลำพูน",
   "amcode": 6,
   "pvcode": 51
 },
 {
   "id": 5107,
   "name_th": "อำเภอบ้านธิ",
   "province_th": "ลำพูน",
   "amcode": 7,
   "pvcode": 51
 },
 {
   "id": 5108,
   "name_th": "อำเภอเวียงหนองล่อง",
   "province_th": "ลำพูน",
   "amcode": 8,
   "pvcode": 51
 },
 {
   "id": 5201,
   "name_th": "อำเภอเมืองลำปาง",
   "province_th": "ลำปาง",
   "amcode": 1,
   "pvcode": 52
 },
 {
   "id": 5202,
   "name_th": "อำเภอแม่เมาะ",
   "province_th": "ลำปาง",
   "amcode": 2,
   "pvcode": 52
 },
 {
   "id": 5203,
   "name_th": "อำเภอเกาะคา",
   "province_th": "ลำปาง",
   "amcode": 3,
   "pvcode": 52
 },
 {
   "id": 5204,
   "name_th": "อำเภอเสริมงาม",
   "province_th": "ลำปาง",
   "amcode": 4,
   "pvcode": 52
 },
 {
   "id": 5205,
   "name_th": "อำเภองาว",
   "province_th": "ลำปาง",
   "amcode": 5,
   "pvcode": 52
 },
 {
   "id": 5206,
   "name_th": "อำเภอแจ้ห่ม",
   "province_th": "ลำปาง",
   "amcode": 6,
   "pvcode": 52
 },
 {
   "id": 5207,
   "name_th": "อำเภอวังเหนือ",
   "province_th": "ลำปาง",
   "amcode": 7,
   "pvcode": 52
 },
 {
   "id": 5208,
   "name_th": "อำเภอเถิน",
   "province_th": "ลำปาง",
   "amcode": 8,
   "pvcode": 52
 },
 {
   "id": 5209,
   "name_th": "อำเภอแม่พริก",
   "province_th": "ลำปาง",
   "amcode": 9,
   "pvcode": 52
 },
 {
   "id": 5210,
   "name_th": "อำเภอแม่ทะ",
   "province_th": "ลำปาง",
   "amcode": 10,
   "pvcode": 52
 },
 {
   "id": 5211,
   "name_th": "อำเภอสบปราบ",
   "province_th": "ลำปาง",
   "amcode": 11,
   "pvcode": 52
 },
 {
   "id": 5212,
   "name_th": "อำเภอห้างฉัตร",
   "province_th": "ลำปาง",
   "amcode": 12,
   "pvcode": 52
 },
 {
   "id": 5213,
   "name_th": "อำเภอเมืองปาน",
   "province_th": "ลำปาง",
   "amcode": 13,
   "pvcode": 52
 },
 {
   "id": 5301,
   "name_th": "อำเภอเมืองอุตรดิตถ์",
   "province_th": "อุตรดิตถ์",
   "amcode": 1,
   "pvcode": 53
 },
 {
   "id": 5302,
   "name_th": "อำเภอตรอน",
   "province_th": "อุตรดิตถ์",
   "amcode": 2,
   "pvcode": 53
 },
 {
   "id": 5303,
   "name_th": "อำเภอท่าปลา",
   "province_th": "อุตรดิตถ์",
   "amcode": 3,
   "pvcode": 53
 },
 {
   "id": 5304,
   "name_th": "อำเภอน้ำปาด",
   "province_th": "อุตรดิตถ์",
   "amcode": 4,
   "pvcode": 53
 },
 {
   "id": 5305,
   "name_th": "อำเภอฟากท่า",
   "province_th": "อุตรดิตถ์",
   "amcode": 5,
   "pvcode": 53
 },
 {
   "id": 5306,
   "name_th": "อำเภอบ้านโคก",
   "province_th": "อุตรดิตถ์",
   "amcode": 6,
   "pvcode": 53
 },
 {
   "id": 5307,
   "name_th": "อำเภอพิชัย",
   "province_th": "อุตรดิตถ์",
   "amcode": 7,
   "pvcode": 53
 },
 {
   "id": 5308,
   "name_th": "อำเภอลับแล",
   "province_th": "อุตรดิตถ์",
   "amcode": 8,
   "pvcode": 53
 },
 {
   "id": 5309,
   "name_th": "อำเภอทองแสนขัน",
   "province_th": "อุตรดิตถ์",
   "amcode": 9,
   "pvcode": 53
 },
 {
   "id": 5401,
   "name_th": "อำเภอเมืองแพร่",
   "province_th": "แพร่",
   "amcode": 1,
   "pvcode": 54
 },
 {
   "id": 5402,
   "name_th": "อำเภอร้องกวาง",
   "province_th": "แพร่",
   "amcode": 2,
   "pvcode": 54
 },
 {
   "id": 5403,
   "name_th": "อำเภอลอง",
   "province_th": "แพร่",
   "amcode": 3,
   "pvcode": 54
 },
 {
   "id": 5404,
   "name_th": "อำเภอสูงเม่น",
   "province_th": "แพร่",
   "amcode": 4,
   "pvcode": 54
 },
 {
   "id": 5405,
   "name_th": "อำเภอเด่นชัย",
   "province_th": "แพร่",
   "amcode": 5,
   "pvcode": 54
 },
 {
   "id": 5406,
   "name_th": "อำเภอสอง",
   "province_th": "แพร่",
   "amcode": 6,
   "pvcode": 54
 },
 {
   "id": 5407,
   "name_th": "อำเภอวังชิ้น",
   "province_th": "แพร่",
   "amcode": 7,
   "pvcode": 54
 },
 {
   "id": 5408,
   "name_th": "อำเภอหนองม่วงไข่",
   "province_th": "แพร่",
   "amcode": 8,
   "pvcode": 54
 },
 {
   "id": 5501,
   "name_th": "อำเภอเมืองน่าน",
   "province_th": "น่าน",
   "amcode": 1,
   "pvcode": 55
 },
 {
   "id": 5502,
   "name_th": "อำเภอแม่จริม",
   "province_th": "น่าน",
   "amcode": 2,
   "pvcode": 55
 },
 {
   "id": 5503,
   "name_th": "อำเภอบ้านหลวง",
   "province_th": "น่าน",
   "amcode": 3,
   "pvcode": 55
 },
 {
   "id": 5504,
   "name_th": "อำเภอนาน้อย",
   "province_th": "น่าน",
   "amcode": 4,
   "pvcode": 55
 },
 {
   "id": 5505,
   "name_th": "อำเภอปัว",
   "province_th": "น่าน",
   "amcode": 5,
   "pvcode": 55
 },
 {
   "id": 5506,
   "name_th": "อำเภอท่าวังผา",
   "province_th": "น่าน",
   "amcode": 6,
   "pvcode": 55
 },
 {
   "id": 5507,
   "name_th": "อำเภอเวียงสา",
   "province_th": "น่าน",
   "amcode": 7,
   "pvcode": 55
 },
 {
   "id": 5508,
   "name_th": "อำเภอทุ่งช้าง",
   "province_th": "น่าน",
   "amcode": 8,
   "pvcode": 55
 },
 {
   "id": 5509,
   "name_th": "อำเภอเชียงกลาง",
   "province_th": "น่าน",
   "amcode": 9,
   "pvcode": 55
 },
 {
   "id": 5510,
   "name_th": "อำเภอนาหมื่น",
   "province_th": "น่าน",
   "amcode": 10,
   "pvcode": 55
 },
 {
   "id": 5511,
   "name_th": "อำเภอสันติสุข",
   "province_th": "น่าน",
   "amcode": 11,
   "pvcode": 55
 },
 {
   "id": 5512,
   "name_th": "อำเภอบ่อเกลือ",
   "province_th": "น่าน",
   "amcode": 12,
   "pvcode": 55
 },
 {
   "id": 5513,
   "name_th": "อำเภอสองแคว",
   "province_th": "น่าน",
   "amcode": 13,
   "pvcode": 55
 },
 {
   "id": 5514,
   "name_th": "อำเภอภูเพียง",
   "province_th": "น่าน",
   "amcode": 14,
   "pvcode": 55
 },
 {
   "id": 5515,
   "name_th": "อำเภอเฉลิมพระเกียรติ",
   "province_th": "น่าน",
   "amcode": 15,
   "pvcode": 55
 },
 {
   "id": 5601,
   "name_th": "อำเภอเมืองพะเยา",
   "province_th": "พะเยา",
   "amcode": 1,
   "pvcode": 56
 },
 {
   "id": 5602,
   "name_th": "อำเภอจุน",
   "province_th": "พะเยา",
   "amcode": 2,
   "pvcode": 56
 },
 {
   "id": 5603,
   "name_th": "อำเภอเชียงคำ",
   "province_th": "พะเยา",
   "amcode": 3,
   "pvcode": 56
 },
 {
   "id": 5604,
   "name_th": "อำเภอเชียงม่วน",
   "province_th": "พะเยา",
   "amcode": 4,
   "pvcode": 56
 },
 {
   "id": 5605,
   "name_th": "อำเภอดอกคำใต้",
   "province_th": "พะเยา",
   "amcode": 5,
   "pvcode": 56
 },
 {
   "id": 5606,
   "name_th": "อำเภอปง",
   "province_th": "พะเยา",
   "amcode": 6,
   "pvcode": 56
 },
 {
   "id": 5607,
   "name_th": "อำเภอแม่ใจ",
   "province_th": "พะเยา",
   "amcode": 7,
   "pvcode": 56
 },
 {
   "id": 5608,
   "name_th": "อำเภอภูซาง",
   "province_th": "พะเยา",
   "amcode": 8,
   "pvcode": 56
 },
 {
   "id": 5609,
   "name_th": "อำเภอภูกามยาว",
   "province_th": "พะเยา",
   "amcode": 9,
   "pvcode": 56
 },
 {
   "id": 5701,
   "name_th": "อำเภอเมืองเชียงราย",
   "province_th": "เชียงราย",
   "amcode": 1,
   "pvcode": 57
 },
 {
   "id": 5702,
   "name_th": "อำเภอเวียงชัย",
   "province_th": "เชียงราย",
   "amcode": 2,
   "pvcode": 57
 },
 {
   "id": 5703,
   "name_th": "อำเภอเชียงของ",
   "province_th": "เชียงราย",
   "amcode": 3,
   "pvcode": 57
 },
 {
   "id": 5704,
   "name_th": "อำเภอเทิง",
   "province_th": "เชียงราย",
   "amcode": 4,
   "pvcode": 57
 },
 {
   "id": 5705,
   "name_th": "อำเภอพาน",
   "province_th": "เชียงราย",
   "amcode": 5,
   "pvcode": 57
 },
 {
   "id": 5706,
   "name_th": "อำเภอป่าแดด",
   "province_th": "เชียงราย",
   "amcode": 6,
   "pvcode": 57
 },
 {
   "id": 5707,
   "name_th": "อำเภอแม่จัน",
   "province_th": "เชียงราย",
   "amcode": 7,
   "pvcode": 57
 },
 {
   "id": 5708,
   "name_th": "อำเภอเชียงแสน",
   "province_th": "เชียงราย",
   "amcode": 8,
   "pvcode": 57
 },
 {
   "id": 5709,
   "name_th": "อำเภอแม่สาย",
   "province_th": "เชียงราย",
   "amcode": 9,
   "pvcode": 57
 },
 {
   "id": 5710,
   "name_th": "อำเภอแม่สรวย",
   "province_th": "เชียงราย",
   "amcode": 10,
   "pvcode": 57
 },
 {
   "id": 5711,
   "name_th": "อำเภอเวียงป่าเป้า",
   "province_th": "เชียงราย",
   "amcode": 11,
   "pvcode": 57
 },
 {
   "id": 5712,
   "name_th": "อำเภอพญาเม็งราย",
   "province_th": "เชียงราย",
   "amcode": 12,
   "pvcode": 57
 },
 {
   "id": 5713,
   "name_th": "อำเภอเวียงแก่น",
   "province_th": "เชียงราย",
   "amcode": 13,
   "pvcode": 57
 },
 {
   "id": 5714,
   "name_th": "อำเภอขุนตาล",
   "province_th": "เชียงราย",
   "amcode": 14,
   "pvcode": 57
 },
 {
   "id": 5715,
   "name_th": "อำเภอแม่ฟ้าหลวง",
   "province_th": "เชียงราย",
   "amcode": 15,
   "pvcode": 57
 },
 {
   "id": 5716,
   "name_th": "อำเภอแม่ลาว",
   "province_th": "เชียงราย",
   "amcode": 16,
   "pvcode": 57
 },
 {
   "id": 5717,
   "name_th": "อำเภอเวียงเชียงรุ้ง",
   "province_th": "เชียงราย",
   "amcode": 17,
   "pvcode": 57
 },
 {
   "id": 5718,
   "name_th": "อำเภอดอยหลวง",
   "province_th": "เชียงราย",
   "amcode": 18,
   "pvcode": 57
 },
 {
   "id": 5801,
   "name_th": "อำเภอเมืองแม่ฮ่องสอน",
   "province_th": "แม่ฮ่องสอน",
   "amcode": 1,
   "pvcode": 58
 },
 {
   "id": 5802,
   "name_th": "อำเภอขุนยวม",
   "province_th": "แม่ฮ่องสอน",
   "amcode": 2,
   "pvcode": 58
 },
 {
   "id": 5803,
   "name_th": "อำเภอปาย",
   "province_th": "แม่ฮ่องสอน",
   "amcode": 3,
   "pvcode": 58
 },
 {
   "id": 5804,
   "name_th": "อำเภอแม่สะเรียง",
   "province_th": "แม่ฮ่องสอน",
   "amcode": 4,
   "pvcode": 58
 },
 {
   "id": 5805,
   "name_th": "อำเภอแม่ลาน้อย",
   "province_th": "แม่ฮ่องสอน",
   "amcode": 5,
   "pvcode": 58
 },
 {
   "id": 5806,
   "name_th": "อำเภอสบเมย",
   "province_th": "แม่ฮ่องสอน",
   "amcode": 6,
   "pvcode": 58
 },
 {
   "id": 5807,
   "name_th": "อำเภอปางมะผ้า",
   "province_th": "แม่ฮ่องสอน",
   "amcode": 7,
   "pvcode": 58
 },
 {
   "id": 6001,
   "name_th": "อำเภอเมืองนครสวรรค์",
   "province_th": "นครสวรรค์",
   "amcode": 1,
   "pvcode": 60
 },
 {
   "id": 6002,
   "name_th": "อำเภอโกรกพระ",
   "province_th": "นครสวรรค์",
   "amcode": 2,
   "pvcode": 60
 },
 {
   "id": 6003,
   "name_th": "อำเภอชุมแสง",
   "province_th": "นครสวรรค์",
   "amcode": 3,
   "pvcode": 60
 },
 {
   "id": 6004,
   "name_th": "อำเภอหนองบัว",
   "province_th": "นครสวรรค์",
   "amcode": 4,
   "pvcode": 60
 },
 {
   "id": 6005,
   "name_th": "อำเภอบรรพตพิสัย",
   "province_th": "นครสวรรค์",
   "amcode": 5,
   "pvcode": 60
 },
 {
   "id": 6006,
   "name_th": "อำเภอเก้าเลี้ยว",
   "province_th": "นครสวรรค์",
   "amcode": 6,
   "pvcode": 60
 },
 {
   "id": 6007,
   "name_th": "อำเภอตาคลี",
   "province_th": "นครสวรรค์",
   "amcode": 7,
   "pvcode": 60
 },
 {
   "id": 6008,
   "name_th": "อำเภอท่าตะโก",
   "province_th": "นครสวรรค์",
   "amcode": 8,
   "pvcode": 60
 },
 {
   "id": 6009,
   "name_th": "อำเภอไพศาลี",
   "province_th": "นครสวรรค์",
   "amcode": 9,
   "pvcode": 60
 },
 {
   "id": 6010,
   "name_th": "อำเภอพยุหะคีรี",
   "province_th": "นครสวรรค์",
   "amcode": 10,
   "pvcode": 60
 },
 {
   "id": 6011,
   "name_th": "อำเภอลาดยาว",
   "province_th": "นครสวรรค์",
   "amcode": 11,
   "pvcode": 60
 },
 {
   "id": 6012,
   "name_th": "อำเภอตากฟ้า",
   "province_th": "นครสวรรค์",
   "amcode": 12,
   "pvcode": 60
 },
 {
   "id": 6013,
   "name_th": "อำเภอแม่วงก์",
   "province_th": "นครสวรรค์",
   "amcode": 13,
   "pvcode": 60
 },
 {
   "id": 6014,
   "name_th": "อำเภอแม่เปิน",
   "province_th": "นครสวรรค์",
   "amcode": 14,
   "pvcode": 60
 },
 {
   "id": 6015,
   "name_th": "อำเภอชุมตาบง",
   "province_th": "นครสวรรค์",
   "amcode": 15,
   "pvcode": 60
 },
 {
   "id": 6101,
   "name_th": "อำเภอเมืองอุทัยธานี",
   "province_th": "อุทัยธานี",
   "amcode": 1,
   "pvcode": 61
 },
 {
   "id": 6102,
   "name_th": "อำเภอทัพทัน",
   "province_th": "อุทัยธานี",
   "amcode": 2,
   "pvcode": 61
 },
 {
   "id": 6103,
   "name_th": "อำเภอสว่างอารมณ์",
   "province_th": "อุทัยธานี",
   "amcode": 3,
   "pvcode": 61
 },
 {
   "id": 6104,
   "name_th": "อำเภอหนองฉาง",
   "province_th": "อุทัยธานี",
   "amcode": 4,
   "pvcode": 61
 },
 {
   "id": 6105,
   "name_th": "อำเภอหนองขาหย่าง",
   "province_th": "อุทัยธานี",
   "amcode": 5,
   "pvcode": 61
 },
 {
   "id": 6106,
   "name_th": "อำเภอบ้านไร่",
   "province_th": "อุทัยธานี",
   "amcode": 6,
   "pvcode": 61
 },
 {
   "id": 6107,
   "name_th": "อำเภอลานสัก",
   "province_th": "อุทัยธานี",
   "amcode": 7,
   "pvcode": 61
 },
 {
   "id": 6108,
   "name_th": "อำเภอห้วยคต",
   "province_th": "อุทัยธานี",
   "amcode": 8,
   "pvcode": 61
 },
 {
   "id": 6201,
   "name_th": "อำเภอเมืองกำแพงเพชร",
   "province_th": "กำแพงเพชร",
   "amcode": 1,
   "pvcode": 62
 },
 {
   "id": 6202,
   "name_th": "อำเภอไทรงาม",
   "province_th": "กำแพงเพชร",
   "amcode": 2,
   "pvcode": 62
 },
 {
   "id": 6203,
   "name_th": "อำเภอคลองลาน",
   "province_th": "กำแพงเพชร",
   "amcode": 3,
   "pvcode": 62
 },
 {
   "id": 6204,
   "name_th": "อำเภอขาณุวรลักษบุรี",
   "province_th": "กำแพงเพชร",
   "amcode": 4,
   "pvcode": 62
 },
 {
   "id": 6205,
   "name_th": "อำเภอคลองขลุง",
   "province_th": "กำแพงเพชร",
   "amcode": 5,
   "pvcode": 62
 },
 {
   "id": 6206,
   "name_th": "อำเภอพรานกระต่าย",
   "province_th": "กำแพงเพชร",
   "amcode": 6,
   "pvcode": 62
 },
 {
   "id": 6207,
   "name_th": "อำเภอลานกระบือ",
   "province_th": "กำแพงเพชร",
   "amcode": 7,
   "pvcode": 62
 },
 {
   "id": 6208,
   "name_th": "อำเภอทรายทองวัฒนา",
   "province_th": "กำแพงเพชร",
   "amcode": 8,
   "pvcode": 62
 },
 {
   "id": 6209,
   "name_th": "อำเภอปางศิลาทอง",
   "province_th": "กำแพงเพชร",
   "amcode": 9,
   "pvcode": 62
 },
 {
   "id": 6210,
   "name_th": "อำเภอบึงสามัคคี",
   "province_th": "กำแพงเพชร",
   "amcode": 10,
   "pvcode": 62
 },
 {
   "id": 6211,
   "name_th": "อำเภอโกสัมพีนคร",
   "province_th": "กำแพงเพชร",
   "amcode": 11,
   "pvcode": 62
 },
 {
   "id": 6301,
   "name_th": "อำเภอเมืองตาก",
   "province_th": "ตาก",
   "amcode": 1,
   "pvcode": 63
 },
 {
   "id": 6302,
   "name_th": "อำเภอบ้านตาก",
   "province_th": "ตาก",
   "amcode": 2,
   "pvcode": 63
 },
 {
   "id": 6303,
   "name_th": "อำเภอสามเงา",
   "province_th": "ตาก",
   "amcode": 3,
   "pvcode": 63
 },
 {
   "id": 6304,
   "name_th": "อำเภอแม่ระมาด",
   "province_th": "ตาก",
   "amcode": 4,
   "pvcode": 63
 },
 {
   "id": 6305,
   "name_th": "อำเภอท่าสองยาง",
   "province_th": "ตาก",
   "amcode": 5,
   "pvcode": 63
 },
 {
   "id": 6306,
   "name_th": "อำเภอแม่สอด",
   "province_th": "ตาก",
   "amcode": 6,
   "pvcode": 63
 },
 {
   "id": 6307,
   "name_th": "อำเภอพบพระ",
   "province_th": "ตาก",
   "amcode": 7,
   "pvcode": 63
 },
 {
   "id": 6308,
   "name_th": "อำเภออุ้มผาง",
   "province_th": "ตาก",
   "amcode": 8,
   "pvcode": 63
 },
 {
   "id": 6309,
   "name_th": "อำเภอวังเจ้า",
   "province_th": "ตาก",
   "amcode": 9,
   "pvcode": 63
 },
 {
   "id": 6401,
   "name_th": "อำเภอเมืองสุโขทัย",
   "province_th": "สุโขทัย",
   "amcode": 1,
   "pvcode": 64
 },
 {
   "id": 6402,
   "name_th": "อำเภอบ้านด่านลานหอย",
   "province_th": "สุโขทัย",
   "amcode": 2,
   "pvcode": 64
 },
 {
   "id": 6403,
   "name_th": "อำเภอคีรีมาศ",
   "province_th": "สุโขทัย",
   "amcode": 3,
   "pvcode": 64
 },
 {
   "id": 6404,
   "name_th": "อำเภอกงไกรลาศ",
   "province_th": "สุโขทัย",
   "amcode": 4,
   "pvcode": 64
 },
 {
   "id": 6405,
   "name_th": "อำเภอศรีสัชนาลัย",
   "province_th": "สุโขทัย",
   "amcode": 5,
   "pvcode": 64
 },
 {
   "id": 6406,
   "name_th": "อำเภอศรีสำโรง",
   "province_th": "สุโขทัย",
   "amcode": 6,
   "pvcode": 64
 },
 {
   "id": 6407,
   "name_th": "อำเภอสวรรคโลก",
   "province_th": "สุโขทัย",
   "amcode": 7,
   "pvcode": 64
 },
 {
   "id": 6408,
   "name_th": "อำเภอศรีนคร",
   "province_th": "สุโขทัย",
   "amcode": 8,
   "pvcode": 64
 },
 {
   "id": 6409,
   "name_th": "อำเภอทุ่งเสลี่ยม",
   "province_th": "สุโขทัย",
   "amcode": 9,
   "pvcode": 64
 },
 {
   "id": 6501,
   "name_th": "อำเภอเมืองพิษณุโลก",
   "province_th": "พิษณุโลก",
   "amcode": 1,
   "pvcode": 65
 },
 {
   "id": 6502,
   "name_th": "อำเภอนครไทย",
   "province_th": "พิษณุโลก",
   "amcode": 2,
   "pvcode": 65
 },
 {
   "id": 6503,
   "name_th": "อำเภอชาติตระการ",
   "province_th": "พิษณุโลก",
   "amcode": 3,
   "pvcode": 65
 },
 {
   "id": 6504,
   "name_th": "อำเภอบางระกำ",
   "province_th": "พิษณุโลก",
   "amcode": 4,
   "pvcode": 65
 },
 {
   "id": 6505,
   "name_th": "อำเภอบางกระทุ่ม",
   "province_th": "พิษณุโลก",
   "amcode": 5,
   "pvcode": 65
 },
 {
   "id": 6506,
   "name_th": "อำเภอพรหมพิราม",
   "province_th": "พิษณุโลก",
   "amcode": 6,
   "pvcode": 65
 },
 {
   "id": 6507,
   "name_th": "อำเภอวัดโบสถ์",
   "province_th": "พิษณุโลก",
   "amcode": 7,
   "pvcode": 65
 },
 {
   "id": 6508,
   "name_th": "อำเภอวังทอง",
   "province_th": "พิษณุโลก",
   "amcode": 8,
   "pvcode": 65
 },
 {
   "id": 6509,
   "name_th": "อำเภอเนินมะปราง",
   "province_th": "พิษณุโลก",
   "amcode": 9,
   "pvcode": 65
 },
 {
   "id": 6601,
   "name_th": "อำเภอเมืองพิจิตร",
   "province_th": "พิจิตร",
   "amcode": 1,
   "pvcode": 66
 },
 {
   "id": 6602,
   "name_th": "อำเภอวังทรายพูน",
   "province_th": "พิจิตร",
   "amcode": 2,
   "pvcode": 66
 },
 {
   "id": 6603,
   "name_th": "อำเภอโพธิ์ประทับช้าง",
   "province_th": "พิจิตร",
   "amcode": 3,
   "pvcode": 66
 },
 {
   "id": 6604,
   "name_th": "อำเภอตะพานหิน",
   "province_th": "พิจิตร",
   "amcode": 4,
   "pvcode": 66
 },
 {
   "id": 6605,
   "name_th": "อำเภอบางมูลนาก",
   "province_th": "พิจิตร",
   "amcode": 5,
   "pvcode": 66
 },
 {
   "id": 6606,
   "name_th": "อำเภอโพทะเล",
   "province_th": "พิจิตร",
   "amcode": 6,
   "pvcode": 66
 },
 {
   "id": 6607,
   "name_th": "อำเภอสามง่าม",
   "province_th": "พิจิตร",
   "amcode": 7,
   "pvcode": 66
 },
 {
   "id": 6608,
   "name_th": "อำเภอทับคล้อ",
   "province_th": "พิจิตร",
   "amcode": 8,
   "pvcode": 66
 },
 {
   "id": 6609,
   "name_th": "อำเภอสากเหล็ก",
   "province_th": "พิจิตร",
   "amcode": 9,
   "pvcode": 66
 },
 {
   "id": 6610,
   "name_th": "อำเภอบึงนาราง",
   "province_th": "พิจิตร",
   "amcode": 10,
   "pvcode": 66
 },
 {
   "id": 6611,
   "name_th": "อำเภอดงเจริญ",
   "province_th": "พิจิตร",
   "amcode": 11,
   "pvcode": 66
 },
 {
   "id": 6612,
   "name_th": "อำเภอวชิรบารมี",
   "province_th": "พิจิตร",
   "amcode": 12,
   "pvcode": 66
 },
 {
   "id": 6701,
   "name_th": "อำเภอเมืองเพชรบูรณ์",
   "province_th": "เพชรบูรณ์",
   "amcode": 1,
   "pvcode": 67
 },
 {
   "id": 6702,
   "name_th": "อำเภอชนแดน",
   "province_th": "เพชรบูรณ์",
   "amcode": 2,
   "pvcode": 67
 },
 {
   "id": 6703,
   "name_th": "อำเภอหล่มสัก",
   "province_th": "เพชรบูรณ์",
   "amcode": 3,
   "pvcode": 67
 },
 {
   "id": 6704,
   "name_th": "อำเภอหล่มเก่า",
   "province_th": "เพชรบูรณ์",
   "amcode": 4,
   "pvcode": 67
 },
 {
   "id": 6705,
   "name_th": "อำเภอวิเชียรบุรี",
   "province_th": "เพชรบูรณ์",
   "amcode": 5,
   "pvcode": 67
 },
 {
   "id": 6706,
   "name_th": "อำเภอศรีเทพ",
   "province_th": "เพชรบูรณ์",
   "amcode": 6,
   "pvcode": 67
 },
 {
   "id": 6707,
   "name_th": "อำเภอหนองไผ่",
   "province_th": "เพชรบูรณ์",
   "amcode": 7,
   "pvcode": 67
 },
 {
   "id": 6708,
   "name_th": "อำเภอบึงสามพัน",
   "province_th": "เพชรบูรณ์",
   "amcode": 8,
   "pvcode": 67
 },
 {
   "id": 6709,
   "name_th": "อำเภอน้ำหนาว",
   "province_th": "เพชรบูรณ์",
   "amcode": 9,
   "pvcode": 67
 },
 {
   "id": 6710,
   "name_th": "อำเภอวังโป่ง",
   "province_th": "เพชรบูรณ์",
   "amcode": 10,
   "pvcode": 67
 },
 {
   "id": 6711,
   "name_th": "อำเภอเขาค้อ",
   "province_th": "เพชรบูรณ์",
   "amcode": 11,
   "pvcode": 67
 },
 {
   "id": 7001,
   "name_th": "อำเภอเมืองราชบุรี",
   "province_th": "ราชบุรี",
   "amcode": 1,
   "pvcode": 70
 },
 {
   "id": 7002,
   "name_th": "อำเภอจอมบึง",
   "province_th": "ราชบุรี",
   "amcode": 2,
   "pvcode": 70
 },
 {
   "id": 7003,
   "name_th": "อำเภอสวนผึ้ง",
   "province_th": "ราชบุรี",
   "amcode": 3,
   "pvcode": 70
 },
 {
   "id": 7004,
   "name_th": "อำเภอดำเนินสะดวก",
   "province_th": "ราชบุรี",
   "amcode": 4,
   "pvcode": 70
 },
 {
   "id": 7005,
   "name_th": "อำเภอบ้านโป่ง",
   "province_th": "ราชบุรี",
   "amcode": 5,
   "pvcode": 70
 },
 {
   "id": 7006,
   "name_th": "อำเภอบางแพ",
   "province_th": "ราชบุรี",
   "amcode": 6,
   "pvcode": 70
 },
 {
   "id": 7007,
   "name_th": "อำเภอโพธาราม",
   "province_th": "ราชบุรี",
   "amcode": 7,
   "pvcode": 70
 },
 {
   "id": 7008,
   "name_th": "อำเภอปากท่อ",
   "province_th": "ราชบุรี",
   "amcode": 8,
   "pvcode": 70
 },
 {
   "id": 7009,
   "name_th": "อำเภอวัดเพลง",
   "province_th": "ราชบุรี",
   "amcode": 9,
   "pvcode": 70
 },
 {
   "id": 7010,
   "name_th": "อำเภอบ้านคา",
   "province_th": "ราชบุรี",
   "amcode": 10,
   "pvcode": 70
 },
 {
   "id": 7101,
   "name_th": "อำเภอเมืองกาญจนบุรี",
   "province_th": "กาญจนบุรี",
   "amcode": 1,
   "pvcode": 71
 },
 {
   "id": 7102,
   "name_th": "อำเภอไทรโยค",
   "province_th": "กาญจนบุรี",
   "amcode": 2,
   "pvcode": 71
 },
 {
   "id": 7103,
   "name_th": "อำเภอบ่อพลอย",
   "province_th": "กาญจนบุรี",
   "amcode": 3,
   "pvcode": 71
 },
 {
   "id": 7104,
   "name_th": "อำเภอศรีสวัสดิ์",
   "province_th": "กาญจนบุรี",
   "amcode": 4,
   "pvcode": 71
 },
 {
   "id": 7105,
   "name_th": "อำเภอท่ามะกา",
   "province_th": "กาญจนบุรี",
   "amcode": 5,
   "pvcode": 71
 },
 {
   "id": 7106,
   "name_th": "อำเภอท่าม่วง",
   "province_th": "กาญจนบุรี",
   "amcode": 6,
   "pvcode": 71
 },
 {
   "id": 7107,
   "name_th": "อำเภอทองผาภูมิ",
   "province_th": "กาญจนบุรี",
   "amcode": 7,
   "pvcode": 71
 },
 {
   "id": 7108,
   "name_th": "อำเภอสังขละบุรี",
   "province_th": "กาญจนบุรี",
   "amcode": 8,
   "pvcode": 71
 },
 {
   "id": 7109,
   "name_th": "อำเภอพนมทวน",
   "province_th": "กาญจนบุรี",
   "amcode": 9,
   "pvcode": 71
 },
 {
   "id": 7110,
   "name_th": "อำเภอเลาขวัญ",
   "province_th": "กาญจนบุรี",
   "amcode": 10,
   "pvcode": 71
 },
 {
   "id": 7111,
   "name_th": "อำเภอด่านมะขามเตี้ย",
   "province_th": "กาญจนบุรี",
   "amcode": 11,
   "pvcode": 71
 },
 {
   "id": 7112,
   "name_th": "อำเภอหนองปรือ",
   "province_th": "กาญจนบุรี",
   "amcode": 12,
   "pvcode": 71
 },
 {
   "id": 7113,
   "name_th": "อำเภอห้วยกระเจา",
   "province_th": "กาญจนบุรี",
   "amcode": 13,
   "pvcode": 71
 },
 {
   "id": 7201,
   "name_th": "อำเภอเมืองสุพรรณบุรี",
   "province_th": "สุพรรณบุรี",
   "amcode": 1,
   "pvcode": 72
 },
 {
   "id": 7202,
   "name_th": "อำเภอเดิมบางนางบวช",
   "province_th": "สุพรรณบุรี",
   "amcode": 2,
   "pvcode": 72
 },
 {
   "id": 7203,
   "name_th": "อำเภอด่านช้าง",
   "province_th": "สุพรรณบุรี",
   "amcode": 3,
   "pvcode": 72
 },
 {
   "id": 7204,
   "name_th": "อำเภอบางปลาม้า",
   "province_th": "สุพรรณบุรี",
   "amcode": 4,
   "pvcode": 72
 },
 {
   "id": 7205,
   "name_th": "อำเภอศรีประจันต์",
   "province_th": "สุพรรณบุรี",
   "amcode": 5,
   "pvcode": 72
 },
 {
   "id": 7206,
   "name_th": "อำเภอดอนเจดีย์",
   "province_th": "สุพรรณบุรี",
   "amcode": 6,
   "pvcode": 72
 },
 {
   "id": 7207,
   "name_th": "อำเภอสองพี่น้อง",
   "province_th": "สุพรรณบุรี",
   "amcode": 7,
   "pvcode": 72
 },
 {
   "id": 7208,
   "name_th": "อำเภอสามชุก",
   "province_th": "สุพรรณบุรี",
   "amcode": 8,
   "pvcode": 72
 },
 {
   "id": 7209,
   "name_th": "อำเภออู่ทอง",
   "province_th": "สุพรรณบุรี",
   "amcode": 9,
   "pvcode": 72
 },
 {
   "id": 7210,
   "name_th": "อำเภอหนองหญ้าไซ",
   "province_th": "สุพรรณบุรี",
   "amcode": 10,
   "pvcode": 72
 },
 {
   "id": 7301,
   "name_th": "อำเภอเมืองนครปฐม",
   "province_th": "นครปฐม",
   "amcode": 1,
   "pvcode": 73
 },
 {
   "id": 7302,
   "name_th": "อำเภอกำแพงแสน",
   "province_th": "นครปฐม",
   "amcode": 2,
   "pvcode": 73
 },
 {
   "id": 7303,
   "name_th": "อำเภอนครชัยศรี",
   "province_th": "นครปฐม",
   "amcode": 3,
   "pvcode": 73
 },
 {
   "id": 7304,
   "name_th": "อำเภอดอนตูม",
   "province_th": "นครปฐม",
   "amcode": 4,
   "pvcode": 73
 },
 {
   "id": 7305,
   "name_th": "อำเภอบางเลน",
   "province_th": "นครปฐม",
   "amcode": 5,
   "pvcode": 73
 },
 {
   "id": 7306,
   "name_th": "อำเภอสามพราน",
   "province_th": "นครปฐม",
   "amcode": 6,
   "pvcode": 73
 },
 {
   "id": 7307,
   "name_th": "อำเภอพุทธมณฑล",
   "province_th": "นครปฐม",
   "amcode": 7,
   "pvcode": 73
 },
 {
   "id": 7401,
   "name_th": "อำเภอเมืองสมุทรสาคร",
   "province_th": "สมุทรสาคร",
   "amcode": 1,
   "pvcode": 74
 },
 {
   "id": 7402,
   "name_th": "อำเภอกระทุ่มแบน",
   "province_th": "สมุทรสาคร",
   "amcode": 2,
   "pvcode": 74
 },
 {
   "id": 7403,
   "name_th": "อำเภอบ้านแพ้ว",
   "province_th": "สมุทรสาคร",
   "amcode": 3,
   "pvcode": 74
 },
 {
   "id": 7501,
   "name_th": "อำเภอเมืองสมุทรสงคราม",
   "province_th": "สมุทรสงคราม",
   "amcode": 1,
   "pvcode": 75
 },
 {
   "id": 7502,
   "name_th": "อำเภอบางคนที",
   "province_th": "สมุทรสงคราม",
   "amcode": 2,
   "pvcode": 75
 },
 {
   "id": 7503,
   "name_th": "อำเภออัมพวา",
   "province_th": "สมุทรสงคราม",
   "amcode": 3,
   "pvcode": 75
 },
 {
   "id": 7601,
   "name_th": "อำเภอเมืองเพชรบุรี",
   "province_th": "เพชรบุรี",
   "amcode": 1,
   "pvcode": 76
 },
 {
   "id": 7602,
   "name_th": "อำเภอเขาย้อย",
   "province_th": "เพชรบุรี",
   "amcode": 2,
   "pvcode": 76
 },
 {
   "id": 7603,
   "name_th": "อำเภอหนองหญ้าปล้อง",
   "province_th": "เพชรบุรี",
   "amcode": 3,
   "pvcode": 76
 },
 {
   "id": 7604,
   "name_th": "อำเภอชะอำ",
   "province_th": "เพชรบุรี",
   "amcode": 4,
   "pvcode": 76
 },
 {
   "id": 7605,
   "name_th": "อำเภอท่ายาง",
   "province_th": "เพชรบุรี",
   "amcode": 5,
   "pvcode": 76
 },
 {
   "id": 7606,
   "name_th": "อำเภอบ้านลาด",
   "province_th": "เพชรบุรี",
   "amcode": 6,
   "pvcode": 76
 },
 {
   "id": 7607,
   "name_th": "อำเภอบ้านแหลม",
   "province_th": "เพชรบุรี",
   "amcode": 7,
   "pvcode": 76
 },
 {
   "id": 7608,
   "name_th": "อำเภอแก่งกระจาน",
   "province_th": "เพชรบุรี",
   "amcode": 8,
   "pvcode": 76
 },
 {
   "id": 7701,
   "name_th": "อำเภอเมืองประจวบคีรีขันธ์",
   "province_th": "ประจวบคีรีขันธ์",
   "amcode": 1,
   "pvcode": 77
 },
 {
   "id": 7702,
   "name_th": "อำเภอกุยบุรี",
   "province_th": "ประจวบคีรีขันธ์",
   "amcode": 2,
   "pvcode": 77
 },
 {
   "id": 7703,
   "name_th": "อำเภอทับสะแก",
   "province_th": "ประจวบคีรีขันธ์",
   "amcode": 3,
   "pvcode": 77
 },
 {
   "id": 7704,
   "name_th": "อำเภอบางสะพาน",
   "province_th": "ประจวบคีรีขันธ์",
   "amcode": 4,
   "pvcode": 77
 },
 {
   "id": 7705,
   "name_th": "อำเภอบางสะพานน้อย",
   "province_th": "ประจวบคีรีขันธ์",
   "amcode": 5,
   "pvcode": 77
 },
 {
   "id": 7706,
   "name_th": "อำเภอปราณบุรี",
   "province_th": "ประจวบคีรีขันธ์",
   "amcode": 6,
   "pvcode": 77
 },
 {
   "id": 7707,
   "name_th": "อำเภอหัวหิน",
   "province_th": "ประจวบคีรีขันธ์",
   "amcode": 7,
   "pvcode": 77
 },
 {
   "id": 7708,
   "name_th": "อำเภอสามร้อยยอด",
   "province_th": "ประจวบคีรีขันธ์",
   "amcode": 8,
   "pvcode": 77
 },
 {
   "id": 8001,
   "name_th": "อำเภอเมืองนครศรีธรรมราช",
   "province_th": "นครศรีธรรมราช",
   "amcode": 1,
   "pvcode": 80
 },
 {
   "id": 8002,
   "name_th": "อำเภอพรหมคีรี",
   "province_th": "นครศรีธรรมราช",
   "amcode": 2,
   "pvcode": 80
 },
 {
   "id": 8003,
   "name_th": "อำเภอลานสกา",
   "province_th": "นครศรีธรรมราช",
   "amcode": 3,
   "pvcode": 80
 },
 {
   "id": 8004,
   "name_th": "อำเภอฉวาง",
   "province_th": "นครศรีธรรมราช",
   "amcode": 4,
   "pvcode": 80
 },
 {
   "id": 8005,
   "name_th": "อำเภอพิปูน",
   "province_th": "นครศรีธรรมราช",
   "amcode": 5,
   "pvcode": 80
 },
 {
   "id": 8006,
   "name_th": "อำเภอเชียรใหญ่",
   "province_th": "นครศรีธรรมราช",
   "amcode": 6,
   "pvcode": 80
 },
 {
   "id": 8007,
   "name_th": "อำเภอชะอวด",
   "province_th": "นครศรีธรรมราช",
   "amcode": 7,
   "pvcode": 80
 },
 {
   "id": 8008,
   "name_th": "อำเภอท่าศาลา",
   "province_th": "นครศรีธรรมราช",
   "amcode": 8,
   "pvcode": 80
 },
 {
   "id": 8009,
   "name_th": "อำเภอทุ่งสง",
   "province_th": "นครศรีธรรมราช",
   "amcode": 9,
   "pvcode": 80
 },
 {
   "id": 8010,
   "name_th": "อำเภอนาบอน",
   "province_th": "นครศรีธรรมราช",
   "amcode": 10,
   "pvcode": 80
 },
 {
   "id": 8011,
   "name_th": "อำเภอทุ่งใหญ่",
   "province_th": "นครศรีธรรมราช",
   "amcode": 11,
   "pvcode": 80
 },
 {
   "id": 8012,
   "name_th": "อำเภอปากพนัง",
   "province_th": "นครศรีธรรมราช",
   "amcode": 12,
   "pvcode": 80
 },
 {
   "id": 8013,
   "name_th": "อำเภอร่อนพิบูลย์",
   "province_th": "นครศรีธรรมราช",
   "amcode": 13,
   "pvcode": 80
 },
 {
   "id": 8014,
   "name_th": "อำเภอสิชล",
   "province_th": "นครศรีธรรมราช",
   "amcode": 14,
   "pvcode": 80
 },
 {
   "id": 8015,
   "name_th": "อำเภอขนอม",
   "province_th": "นครศรีธรรมราช",
   "amcode": 15,
   "pvcode": 80
 },
 {
   "id": 8016,
   "name_th": "อำเภอหัวไทร",
   "province_th": "นครศรีธรรมราช",
   "amcode": 16,
   "pvcode": 80
 },
 {
   "id": 8017,
   "name_th": "อำเภอบางขัน",
   "province_th": "นครศรีธรรมราช",
   "amcode": 17,
   "pvcode": 80
 },
 {
   "id": 8018,
   "name_th": "อำเภอถ้ำพรรณรา",
   "province_th": "นครศรีธรรมราช",
   "amcode": 18,
   "pvcode": 80
 },
 {
   "id": 8019,
   "name_th": "อำเภอจุฬาภรณ์",
   "province_th": "นครศรีธรรมราช",
   "amcode": 19,
   "pvcode": 80
 },
 {
   "id": 8020,
   "name_th": "อำเภอพระพรหม",
   "province_th": "นครศรีธรรมราช",
   "amcode": 20,
   "pvcode": 80
 },
 {
   "id": 8021,
   "name_th": "อำเภอนบพิตำ",
   "province_th": "นครศรีธรรมราช",
   "amcode": 21,
   "pvcode": 80
 },
 {
   "id": 8022,
   "name_th": "อำเภอช้างกลาง",
   "province_th": "นครศรีธรรมราช",
   "amcode": 22,
   "pvcode": 80
 },
 {
   "id": 8023,
   "name_th": "อำเภอเฉลิมพระเกียรติ",
   "province_th": "นครศรีธรรมราช",
   "amcode": 23,
   "pvcode": 80
 },
 {
   "id": 8101,
   "name_th": "อำเภอเมืองกระบี่",
   "province_th": "กระบี่",
   "amcode": 1,
   "pvcode": 81
 },
 {
   "id": 8102,
   "name_th": "อำเภอเขาพนม",
   "province_th": "กระบี่",
   "amcode": 2,
   "pvcode": 81
 },
 {
   "id": 8103,
   "name_th": "อำเภอเกาะลันตา",
   "province_th": "กระบี่",
   "amcode": 3,
   "pvcode": 81
 },
 {
   "id": 8104,
   "name_th": "อำเภอคลองท่อม",
   "province_th": "กระบี่",
   "amcode": 4,
   "pvcode": 81
 },
 {
   "id": 8105,
   "name_th": "อำเภออ่าวลึก",
   "province_th": "กระบี่",
   "amcode": 5,
   "pvcode": 81
 },
 {
   "id": 8106,
   "name_th": "อำเภอปลายพระยา",
   "province_th": "กระบี่",
   "amcode": 6,
   "pvcode": 81
 },
 {
   "id": 8107,
   "name_th": "อำเภอลำทับ",
   "province_th": "กระบี่",
   "amcode": 7,
   "pvcode": 81
 },
 {
   "id": 8108,
   "name_th": "อำเภอเหนือคลอง",
   "province_th": "กระบี่",
   "amcode": 8,
   "pvcode": 81
 },
 {
   "id": 8201,
   "name_th": "อำเภอเมืองพังงา",
   "province_th": "พังงา",
   "amcode": 1,
   "pvcode": 82
 },
 {
   "id": 8202,
   "name_th": "อำเภอเกาะยาว",
   "province_th": "พังงา",
   "amcode": 2,
   "pvcode": 82
 },
 {
   "id": 8203,
   "name_th": "อำเภอกะปง",
   "province_th": "พังงา",
   "amcode": 3,
   "pvcode": 82
 },
 {
   "id": 8204,
   "name_th": "อำเภอตะกั่วทุ่ง",
   "province_th": "พังงา",
   "amcode": 4,
   "pvcode": 82
 },
 {
   "id": 8205,
   "name_th": "อำเภอตะกั่วป่า",
   "province_th": "พังงา",
   "amcode": 5,
   "pvcode": 82
 },
 {
   "id": 8206,
   "name_th": "อำเภอคุระบุรี",
   "province_th": "พังงา",
   "amcode": 6,
   "pvcode": 82
 },
 {
   "id": 8207,
   "name_th": "อำเภอทับปุด",
   "province_th": "พังงา",
   "amcode": 7,
   "pvcode": 82
 },
 {
   "id": 8208,
   "name_th": "อำเภอท้ายเหมือง",
   "province_th": "พังงา",
   "amcode": 8,
   "pvcode": 82
 },
 {
   "id": 8301,
   "name_th": "อำเภอเมืองภูเก็ต",
   "province_th": "ภูเก็ต",
   "amcode": 1,
   "pvcode": 83
 },
 {
   "id": 8302,
   "name_th": "อำเภอกะทู้",
   "province_th": "ภูเก็ต",
   "amcode": 2,
   "pvcode": 83
 },
 {
   "id": 8303,
   "name_th": "อำเภอถลาง",
   "province_th": "ภูเก็ต",
   "amcode": 3,
   "pvcode": 83
 },
 {
   "id": 8401,
   "name_th": "อำเภอเมืองสุราษฎร์ธานี",
   "province_th": "สุราษฎร์ธานี",
   "amcode": 1,
   "pvcode": 84
 },
 {
   "id": 8402,
   "name_th": "อำเภอกาญจนดิษฐ์",
   "province_th": "สุราษฎร์ธานี",
   "amcode": 2,
   "pvcode": 84
 },
 {
   "id": 8403,
   "name_th": "อำเภอดอนสัก",
   "province_th": "สุราษฎร์ธานี",
   "amcode": 3,
   "pvcode": 84
 },
 {
   "id": 8404,
   "name_th": "อำเภอเกาะสมุย",
   "province_th": "สุราษฎร์ธานี",
   "amcode": 4,
   "pvcode": 84
 },
 {
   "id": 8405,
   "name_th": "อำเภอเกาะพะงัน",
   "province_th": "สุราษฎร์ธานี",
   "amcode": 5,
   "pvcode": 84
 },
 {
   "id": 8406,
   "name_th": "อำเภอไชยา",
   "province_th": "สุราษฎร์ธานี",
   "amcode": 6,
   "pvcode": 84
 },
 {
   "id": 8407,
   "name_th": "อำเภอท่าชนะ",
   "province_th": "สุราษฎร์ธานี",
   "amcode": 7,
   "pvcode": 84
 },
 {
   "id": 8408,
   "name_th": "อำเภอคีรีรัฐนิคม",
   "province_th": "สุราษฎร์ธานี",
   "amcode": 8,
   "pvcode": 84
 },
 {
   "id": 8409,
   "name_th": "อำเภอบ้านตาขุน",
   "province_th": "สุราษฎร์ธานี",
   "amcode": 9,
   "pvcode": 84
 },
 {
   "id": 8410,
   "name_th": "อำเภอพนม",
   "province_th": "สุราษฎร์ธานี",
   "amcode": 10,
   "pvcode": 84
 },
 {
   "id": 8411,
   "name_th": "อำเภอท่าฉาง",
   "province_th": "สุราษฎร์ธานี",
   "amcode": 11,
   "pvcode": 84
 },
 {
   "id": 8412,
   "name_th": "อำเภอบ้านนาสาร",
   "province_th": "สุราษฎร์ธานี",
   "amcode": 12,
   "pvcode": 84
 },
 {
   "id": 8413,
   "name_th": "อำเภอบ้านนาเดิม",
   "province_th": "สุราษฎร์ธานี",
   "amcode": 13,
   "pvcode": 84
 },
 {
   "id": 8414,
   "name_th": "อำเภอเคียนซา",
   "province_th": "สุราษฎร์ธานี",
   "amcode": 14,
   "pvcode": 84
 },
 {
   "id": 8415,
   "name_th": "อำเภอเวียงสระ",
   "province_th": "สุราษฎร์ธานี",
   "amcode": 15,
   "pvcode": 84
 },
 {
   "id": 8416,
   "name_th": "อำเภอพระแสง",
   "province_th": "สุราษฎร์ธานี",
   "amcode": 16,
   "pvcode": 84
 },
 {
   "id": 8417,
   "name_th": "อำเภอพุนพิน",
   "province_th": "สุราษฎร์ธานี",
   "amcode": 17,
   "pvcode": 84
 },
 {
   "id": 8418,
   "name_th": "อำเภอชัยบุรี",
   "province_th": "สุราษฎร์ธานี",
   "amcode": 18,
   "pvcode": 84
 },
 {
   "id": 8419,
   "name_th": "อำเภอวิภาวดี",
   "province_th": "สุราษฎร์ธานี",
   "amcode": 19,
   "pvcode": 84
 },
 {
   "id": 8501,
   "name_th": "อำเภอเมืองระนอง",
   "province_th": "ระนอง",
   "amcode": 1,
   "pvcode": 85
 },
 {
   "id": 8502,
   "name_th": "อำเภอละอุ่น",
   "province_th": "ระนอง",
   "amcode": 2,
   "pvcode": 85
 },
 {
   "id": 8503,
   "name_th": "อำเภอกะเปอร์",
   "province_th": "ระนอง",
   "amcode": 3,
   "pvcode": 85
 },
 {
   "id": 8504,
   "name_th": "อำเภอกระบุรี",
   "province_th": "ระนอง",
   "amcode": 4,
   "pvcode": 85
 },
 {
   "id": 8505,
   "name_th": "อำเภอสุขสำราญ",
   "province_th": "ระนอง",
   "amcode": 5,
   "pvcode": 85
 },
 {
   "id": 8601,
   "name_th": "อำเภอเมืองชุมพร",
   "province_th": "ชุมพร",
   "amcode": 1,
   "pvcode": 86
 },
 {
   "id": 8602,
   "name_th": "อำเภอท่าแซะ",
   "province_th": "ชุมพร",
   "amcode": 2,
   "pvcode": 86
 },
 {
   "id": 8603,
   "name_th": "อำเภอปะทิว",
   "province_th": "ชุมพร",
   "amcode": 3,
   "pvcode": 86
 },
 {
   "id": 8604,
   "name_th": "อำเภอหลังสวน",
   "province_th": "ชุมพร",
   "amcode": 4,
   "pvcode": 86
 },
 {
   "id": 8605,
   "name_th": "อำเภอละแม",
   "province_th": "ชุมพร",
   "amcode": 5,
   "pvcode": 86
 },
 {
   "id": 8606,
   "name_th": "อำเภอพะโต๊ะ",
   "province_th": "ชุมพร",
   "amcode": 6,
   "pvcode": 86
 },
 {
   "id": 8607,
   "name_th": "อำเภอสวี",
   "province_th": "ชุมพร",
   "amcode": 7,
   "pvcode": 86
 },
 {
   "id": 8608,
   "name_th": "อำเภอทุ่งตะโก",
   "province_th": "ชุมพร",
   "amcode": 8,
   "pvcode": 86
 },
 {
   "id": 9001,
   "name_th": "อำเภอเมืองสงขลา",
   "province_th": "สงขลา",
   "amcode": 1,
   "pvcode": 90
 },
 {
   "id": 9002,
   "name_th": "อำเภอสทิงพระ",
   "province_th": "สงขลา",
   "amcode": 2,
   "pvcode": 90
 },
 {
   "id": 9003,
   "name_th": "อำเภอจะนะ",
   "province_th": "สงขลา",
   "amcode": 3,
   "pvcode": 90
 },
 {
   "id": 9004,
   "name_th": "อำเภอนาทวี",
   "province_th": "สงขลา",
   "amcode": 4,
   "pvcode": 90
 },
 {
   "id": 9005,
   "name_th": "อำเภอเทพา",
   "province_th": "สงขลา",
   "amcode": 5,
   "pvcode": 90
 },
 {
   "id": 9006,
   "name_th": "อำเภอสะบ้าย้อย",
   "province_th": "สงขลา",
   "amcode": 6,
   "pvcode": 90
 },
 {
   "id": 9007,
   "name_th": "อำเภอระโนด",
   "province_th": "สงขลา",
   "amcode": 7,
   "pvcode": 90
 },
 {
   "id": 9008,
   "name_th": "อำเภอกระแสสินธุ์",
   "province_th": "สงขลา",
   "amcode": 8,
   "pvcode": 90
 },
 {
   "id": 9009,
   "name_th": "อำเภอรัตภูมิ",
   "province_th": "สงขลา",
   "amcode": 9,
   "pvcode": 90
 },
 {
   "id": 9010,
   "name_th": "อำเภอสะเดา",
   "province_th": "สงขลา",
   "amcode": 10,
   "pvcode": 90
 },
 {
   "id": 9011,
   "name_th": "อำเภอหาดใหญ่",
   "province_th": "สงขลา",
   "amcode": 11,
   "pvcode": 90
 },
 {
   "id": 9012,
   "name_th": "อำเภอนาหม่อม",
   "province_th": "สงขลา",
   "amcode": 12,
   "pvcode": 90
 },
 {
   "id": 9013,
   "name_th": "อำเภอควนเนียง",
   "province_th": "สงขลา",
   "amcode": 13,
   "pvcode": 90
 },
 {
   "id": 9014,
   "name_th": "อำเภอบางกล่ำ",
   "province_th": "สงขลา",
   "amcode": 14,
   "pvcode": 90
 },
 {
   "id": 9015,
   "name_th": "อำเภอสิงหนคร",
   "province_th": "สงขลา",
   "amcode": 15,
   "pvcode": 90
 },
 {
   "id": 9016,
   "name_th": "อำเภอคลองหอยโข่ง",
   "province_th": "สงขลา",
   "amcode": 16,
   "pvcode": 90
 },
 {
   "id": 9101,
   "name_th": "อำเภอเมืองสตูล",
   "province_th": "สตูล",
   "amcode": 1,
   "pvcode": 91
 },
 {
   "id": 9102,
   "name_th": "อำเภอควนโดน",
   "province_th": "สตูล",
   "amcode": 2,
   "pvcode": 91
 },
 {
   "id": 9103,
   "name_th": "อำเภอควนกาหลง",
   "province_th": "สตูล",
   "amcode": 3,
   "pvcode": 91
 },
 {
   "id": 9104,
   "name_th": "อำเภอท่าแพ",
   "province_th": "สตูล",
   "amcode": 4,
   "pvcode": 91
 },
 {
   "id": 9105,
   "name_th": "อำเภอละงู",
   "province_th": "สตูล",
   "amcode": 5,
   "pvcode": 91
 },
 {
   "id": 9106,
   "name_th": "อำเภอทุ่งหว้า",
   "province_th": "สตูล",
   "amcode": 6,
   "pvcode": 91
 },
 {
   "id": 9107,
   "name_th": "อำเภอมะนัง",
   "province_th": "สตูล",
   "amcode": 7,
   "pvcode": 91
 },
 {
   "id": 9201,
   "name_th": "อำเภอเมืองตรัง",
   "province_th": "ตรัง",
   "amcode": 1,
   "pvcode": 92
 },
 {
   "id": 9202,
   "name_th": "อำเภอกันตัง",
   "province_th": "ตรัง",
   "amcode": 2,
   "pvcode": 92
 },
 {
   "id": 9203,
   "name_th": "อำเภอย่านตาขาว",
   "province_th": "ตรัง",
   "amcode": 3,
   "pvcode": 92
 },
 {
   "id": 9204,
   "name_th": "อำเภอปะเหลียน",
   "province_th": "ตรัง",
   "amcode": 4,
   "pvcode": 92
 },
 {
   "id": 9205,
   "name_th": "อำเภอสิเกา",
   "province_th": "ตรัง",
   "amcode": 5,
   "pvcode": 92
 },
 {
   "id": 9206,
   "name_th": "อำเภอห้วยยอด",
   "province_th": "ตรัง",
   "amcode": 6,
   "pvcode": 92
 },
 {
   "id": 9207,
   "name_th": "อำเภอวังวิเศษ",
   "province_th": "ตรัง",
   "amcode": 7,
   "pvcode": 92
 },
 {
   "id": 9208,
   "name_th": "อำเภอนาโยง",
   "province_th": "ตรัง",
   "amcode": 8,
   "pvcode": 92
 },
 {
   "id": 9209,
   "name_th": "อำเภอรัษฎา",
   "province_th": "ตรัง",
   "amcode": 9,
   "pvcode": 92
 },
 {
   "id": 9210,
   "name_th": "อำเภอหาดสำราญ",
   "province_th": "ตรัง",
   "amcode": 10,
   "pvcode": 92
 },
 {
   "id": 9301,
   "name_th": "อำเภอเมืองพัทลุง",
   "province_th": "พัทลุง",
   "amcode": 1,
   "pvcode": 93
 },
 {
   "id": 9302,
   "name_th": "อำเภอกงหรา",
   "province_th": "พัทลุง",
   "amcode": 2,
   "pvcode": 93
 },
 {
   "id": 9303,
   "name_th": "อำเภอเขาชัยสน",
   "province_th": "พัทลุง",
   "amcode": 3,
   "pvcode": 93
 },
 {
   "id": 9304,
   "name_th": "อำเภอตะโหมด",
   "province_th": "พัทลุง",
   "amcode": 4,
   "pvcode": 93
 },
 {
   "id": 9305,
   "name_th": "อำเภอควนขนุน",
   "province_th": "พัทลุง",
   "amcode": 5,
   "pvcode": 93
 },
 {
   "id": 9306,
   "name_th": "อำเภอปากพะยูน",
   "province_th": "พัทลุง",
   "amcode": 6,
   "pvcode": 93
 },
 {
   "id": 9307,
   "name_th": "อำเภอศรีบรรพต",
   "province_th": "พัทลุง",
   "amcode": 7,
   "pvcode": 93
 },
 {
   "id": 9308,
   "name_th": "อำเภอป่าบอน",
   "province_th": "พัทลุง",
   "amcode": 8,
   "pvcode": 93
 },
 {
   "id": 9309,
   "name_th": "อำเภอบางแก้ว",
   "province_th": "พัทลุง",
   "amcode": 9,
   "pvcode": 93
 },
 {
   "id": 9310,
   "name_th": "อำเภอป่าพะยอม",
   "province_th": "พัทลุง",
   "amcode": 10,
   "pvcode": 93
 },
 {
   "id": 9311,
   "name_th": "อำเภอศรีนครินทร์",
   "province_th": "พัทลุง",
   "amcode": 11,
   "pvcode": 93
 },
 {
   "id": 9401,
   "name_th": "อำเภอเมืองปัตตานี",
   "province_th": "ปัตตานี",
   "amcode": 1,
   "pvcode": 94
 },
 {
   "id": 9402,
   "name_th": "อำเภอโคกโพธิ์",
   "province_th": "ปัตตานี",
   "amcode": 2,
   "pvcode": 94
 },
 {
   "id": 9403,
   "name_th": "อำเภอหนองจิก",
   "province_th": "ปัตตานี",
   "amcode": 3,
   "pvcode": 94
 },
 {
   "id": 9404,
   "name_th": "อำเภอปะนาเระ",
   "province_th": "ปัตตานี",
   "amcode": 4,
   "pvcode": 94
 },
 {
   "id": 9405,
   "name_th": "อำเภอมายอ",
   "province_th": "ปัตตานี",
   "amcode": 5,
   "pvcode": 94
 },
 {
   "id": 9406,
   "name_th": "อำเภอทุ่งยางแดง",
   "province_th": "ปัตตานี",
   "amcode": 6,
   "pvcode": 94
 },
 {
   "id": 9407,
   "name_th": "อำเภอสายบุรี",
   "province_th": "ปัตตานี",
   "amcode": 7,
   "pvcode": 94
 },
 {
   "id": 9408,
   "name_th": "อำเภอไม้แก่น",
   "province_th": "ปัตตานี",
   "amcode": 8,
   "pvcode": 94
 },
 {
   "id": 9409,
   "name_th": "อำเภอยะหริ่ง",
   "province_th": "ปัตตานี",
   "amcode": 9,
   "pvcode": 94
 },
 {
   "id": 9410,
   "name_th": "อำเภอยะรัง",
   "province_th": "ปัตตานี",
   "amcode": 10,
   "pvcode": 94
 },
 {
   "id": 9411,
   "name_th": "อำเภอกะพ้อ",
   "province_th": "ปัตตานี",
   "amcode": 11,
   "pvcode": 94
 },
 {
   "id": 9412,
   "name_th": "อำเภอแม่ลาน",
   "province_th": "ปัตตานี",
   "amcode": 12,
   "pvcode": 94
 },
 {
   "id": 9501,
   "name_th": "อำเภอเมืองยะลา",
   "province_th": "ยะลา",
   "amcode": 1,
   "pvcode": 95
 },
 {
   "id": 9502,
   "name_th": "อำเภอเบตง",
   "province_th": "ยะลา",
   "amcode": 2,
   "pvcode": 95
 },
 {
   "id": 9503,
   "name_th": "อำเภอบันนังสตา",
   "province_th": "ยะลา",
   "amcode": 3,
   "pvcode": 95
 },
 {
   "id": 9504,
   "name_th": "อำเภอธารโต",
   "province_th": "ยะลา",
   "amcode": 4,
   "pvcode": 95
 },
 {
   "id": 9505,
   "name_th": "อำเภอยะหา",
   "province_th": "ยะลา",
   "amcode": 5,
   "pvcode": 95
 },
 {
   "id": 9506,
   "name_th": "อำเภอรามัน",
   "province_th": "ยะลา",
   "amcode": 6,
   "pvcode": 95
 },
 {
   "id": 9507,
   "name_th": "อำเภอกาบัง",
   "province_th": "ยะลา",
   "amcode": 7,
   "pvcode": 95
 },
 {
   "id": 9508,
   "name_th": "อำเภอกรงปินัง",
   "province_th": "ยะลา",
   "amcode": 8,
   "pvcode": 95
 },
 {
   "id": 9601,
   "name_th": "อำเภอเมืองนราธิวาส",
   "province_th": "นราธิวาส",
   "amcode": 1,
   "pvcode": 96
 },
 {
   "id": 9602,
   "name_th": "อำเภอตากใบ",
   "province_th": "นราธิวาส",
   "amcode": 2,
   "pvcode": 96
 },
 {
   "id": 9603,
   "name_th": "อำเภอบาเจาะ",
   "province_th": "นราธิวาส",
   "amcode": 3,
   "pvcode": 96
 },
 {
   "id": 9604,
   "name_th": "อำเภอยี่งอ",
   "province_th": "นราธิวาส",
   "amcode": 4,
   "pvcode": 96
 },
 {
   "id": 9605,
   "name_th": "อำเภอระแงะ",
   "province_th": "นราธิวาส",
   "amcode": 5,
   "pvcode": 96
 },
 {
   "id": 9606,
   "name_th": "อำเภอรือเสาะ",
   "province_th": "นราธิวาส",
   "amcode": 6,
   "pvcode": 96
 },
 {
   "id": 9607,
   "name_th": "อำเภอศรีสาคร",
   "province_th": "นราธิวาส",
   "amcode": 7,
   "pvcode": 96
 },
 {
   "id": 9608,
   "name_th": "อำเภอแว้ง",
   "province_th": "นราธิวาส",
   "amcode": 8,
   "pvcode": 96
 },
 {
   "id": 9609,
   "name_th": "อำเภอสุคิริน",
   "province_th": "นราธิวาส",
   "amcode": 9,
   "pvcode": 96
 },
 {
   "id": 9610,
   "name_th": "อำเภอสุไหงโก-ลก",
   "province_th": "นราธิวาส",
   "amcode": 10,
   "pvcode": 96
 },
 {
   "id": 9611,
   "name_th": "อำเภอสุไหงปาดี",
   "province_th": "นราธิวาส",
   "amcode": 11,
   "pvcode": 96
 },
 {
   "id": 9612,
   "name_th": "อำเภอจะแนะ",
   "province_th": "นราธิวาส",
   "amcode": 12,
   "pvcode": 96
 },
 {
   "id": 9613,
   "name_th": "อำเภอเจาะไอร้อง",
   "province_th": "นราธิวาส",
   "amcode": 13,
   "pvcode": 96
 }
]